[
 {
   "municipalityCode":101,
   "postcode":"1050",
   "city":"København"
 },
 {
   "municipalityCode":101,
   "postcode":"1051",
   "city":"København"
 },
 {
   "municipalityCode":101,
   "postcode":"1052",
   "city":"København"
 },
 {
   "municipalityCode":101,
   "postcode":"1053",
   "city":"København"
 },
 {
   "municipalityCode":101,
   "postcode":"1054",
   "city":"København"
 },
 {
   "municipalityCode":101,
   "postcode":"1055",
   "city":"København"
 },
 {
   "municipalityCode":101,
   "postcode":"1056",
   "city":"København"
 },
 {
   "municipalityCode":101,
   "postcode":"1057",
   "city":"København"
 },
 {
   "municipalityCode":101,
   "postcode":"1058",
   "city":"København"
 },
 {
   "municipalityCode":101,
   "postcode":"1059",
   "city":"København"
 },
 {
   "municipalityCode":101,
   "postcode":"1060",
   "city":"København"
 },
 {
   "municipalityCode":101,
   "postcode":"1061",
   "city":"København"
 },
 {
   "municipalityCode":101,
   "postcode":"1062",
   "city":"København"
 },
 {
   "municipalityCode":101,
   "postcode":"1063",
   "city":"København"
 },
 {
   "municipalityCode":101,
   "postcode":"1064",
   "city":"København"
 },
 {
   "municipalityCode":101,
   "postcode":"1065",
   "city":"København"
 },
 {
   "municipalityCode":101,
   "postcode":"1066",
   "city":"København"
 },
 {
   "municipalityCode":101,
   "postcode":"1067",
   "city":"København"
 },
 {
   "municipalityCode":101,
   "postcode":"1068",
   "city":"København"
 },
 {
   "municipalityCode":101,
   "postcode":"1069",
   "city":"København"
 },
 {
   "municipalityCode":101,
   "postcode":"1070",
   "city":"København"
 },
 {
   "municipalityCode":101,
   "postcode":"1071",
   "city":"København"
 },
 {
   "municipalityCode":101,
   "postcode":"1072",
   "city":"København"
 },
 {
   "municipalityCode":101,
   "postcode":"1073",
   "city":"København"
 },
 {
   "municipalityCode":101,
   "postcode":"1074",
   "city":"København"
 },
 {
   "municipalityCode":101,
   "postcode":"1100",
   "city":"København"
 },
 {
   "municipalityCode":101,
   "postcode":"1101",
   "city":"København"
 },
 {
   "municipalityCode":101,
   "postcode":"1102",
   "city":"København"
 },
 {
   "municipalityCode":101,
   "postcode":"1103",
   "city":"København"
 },
 {
   "municipalityCode":101,
   "postcode":"1104",
   "city":"København"
 },
 {
   "municipalityCode":101,
   "postcode":"1105",
   "city":"København"
 },
 {
   "municipalityCode":101,
   "postcode":"1106",
   "city":"København"
 },
 {
   "municipalityCode":101,
   "postcode":"1107",
   "city":"København"
 },
 {
   "municipalityCode":101,
   "postcode":"1110",
   "city":"København"
 },
 {
   "municipalityCode":101,
   "postcode":"1111",
   "city":"København"
 },
 {
   "municipalityCode":101,
   "postcode":"1112",
   "city":"København"
 },
 {
   "municipalityCode":101,
   "postcode":"1113",
   "city":"København"
 },
 {
   "municipalityCode":101,
   "postcode":"1114",
   "city":"København"
 },
 {
   "municipalityCode":101,
   "postcode":"1115",
   "city":"København"
 },
 {
   "municipalityCode":101,
   "postcode":"1116",
   "city":"København"
 },
 {
   "municipalityCode":101,
   "postcode":"1117",
   "city":"København"
 },
 {
   "municipalityCode":101,
   "postcode":"1118",
   "city":"København"
 },
 {
   "municipalityCode":101,
   "postcode":"1119",
   "city":"København"
 },
 {
   "municipalityCode":101,
   "postcode":"1120",
   "city":"København"
 },
 {
   "municipalityCode":101,
   "postcode":"1121",
   "city":"København"
 },
 {
   "municipalityCode":101,
   "postcode":"1122",
   "city":"København"
 },
 {
   "municipalityCode":101,
   "postcode":"1123",
   "city":"København"
 },
 {
   "municipalityCode":101,
   "postcode":"1124",
   "city":"København"
 },
 {
   "municipalityCode":101,
   "postcode":"1125",
   "city":"København"
 },
 {
   "municipalityCode":101,
   "postcode":"1126",
   "city":"København"
 },
 {
   "municipalityCode":101,
   "postcode":"1127",
   "city":"København"
 },
 {
   "municipalityCode":101,
   "postcode":"1128",
   "city":"København"
 },
 {
   "municipalityCode":101,
   "postcode":"1129",
   "city":"København"
 },
 {
   "municipalityCode":101,
   "postcode":"1130",
   "city":"København"
 },
 {
   "municipalityCode":101,
   "postcode":"1131",
   "city":"København"
 },
 {
   "municipalityCode":101,
   "postcode":"1150",
   "city":"København"
 },
 {
   "municipalityCode":101,
   "postcode":"1151",
   "city":"København"
 },
 {
   "municipalityCode":101,
   "postcode":"1152",
   "city":"København"
 },
 {
   "municipalityCode":101,
   "postcode":"1153",
   "city":"København"
 },
 {
   "municipalityCode":101,
   "postcode":"1154",
   "city":"København"
 },
 {
   "municipalityCode":101,
   "postcode":"1155",
   "city":"København"
 },
 {
   "municipalityCode":101,
   "postcode":"1156",
   "city":"København"
 },
 {
   "municipalityCode":101,
   "postcode":"1157",
   "city":"København"
 },
 {
   "municipalityCode":101,
   "postcode":"1158",
   "city":"København"
 },
 {
   "municipalityCode":101,
   "postcode":"1159",
   "city":"København"
 },
 {
   "municipalityCode":101,
   "postcode":"1160",
   "city":"København"
 },
 {
   "municipalityCode":101,
   "postcode":"1161",
   "city":"København"
 },
 {
   "municipalityCode":101,
   "postcode":"1162",
   "city":"København"
 },
 {
   "municipalityCode":101,
   "postcode":"1164",
   "city":"København"
 },
 {
   "municipalityCode":101,
   "postcode":"1165",
   "city":"København"
 },
 {
   "municipalityCode":101,
   "postcode":"1166",
   "city":"København"
 },
 {
   "municipalityCode":101,
   "postcode":"1167",
   "city":"København"
 },
 {
   "municipalityCode":101,
   "postcode":"1168",
   "city":"København"
 },
 {
   "municipalityCode":101,
   "postcode":"1169",
   "city":"København"
 },
 {
   "municipalityCode":101,
   "postcode":"1170",
   "city":"København"
 },
 {
   "municipalityCode":101,
   "postcode":"1171",
   "city":"København"
 },
 {
   "municipalityCode":101,
   "postcode":"1172",
   "city":"København"
 },
 {
   "municipalityCode":101,
   "postcode":"1173",
   "city":"København"
 },
 {
   "municipalityCode":101,
   "postcode":"1174",
   "city":"København"
 },
 {
   "municipalityCode":101,
   "postcode":"1175",
   "city":"København"
 },
 {
   "municipalityCode":101,
   "postcode":"1200",
   "city":"København"
 },
 {
   "municipalityCode":101,
   "postcode":"1201",
   "city":"København"
 },
 {
   "municipalityCode":101,
   "postcode":"1202",
   "city":"København"
 },
 {
   "municipalityCode":101,
   "postcode":"1203",
   "city":"København"
 },
 {
   "municipalityCode":101,
   "postcode":"1204",
   "city":"København"
 },
 {
   "municipalityCode":101,
   "postcode":"1205",
   "city":"København"
 },
 {
   "municipalityCode":101,
   "postcode":"1206",
   "city":"København"
 },
 {
   "municipalityCode":101,
   "postcode":"1207",
   "city":"København"
 },
 {
   "municipalityCode":101,
   "postcode":"1208",
   "city":"København"
 },
 {
   "municipalityCode":101,
   "postcode":"1209",
   "city":"København"
 },
 {
   "municipalityCode":101,
   "postcode":"1210",
   "city":"København"
 },
 {
   "municipalityCode":101,
   "postcode":"1211",
   "city":"København"
 },
 {
   "municipalityCode":101,
   "postcode":"1212",
   "city":"København"
 },
 {
   "municipalityCode":101,
   "postcode":"1213",
   "city":"København"
 },
 {
   "municipalityCode":101,
   "postcode":"1214",
   "city":"København"
 },
 {
   "municipalityCode":101,
   "postcode":"1215",
   "city":"København"
 },
 {
   "municipalityCode":101,
   "postcode":"1216",
   "city":"København"
 },
 {
   "municipalityCode":101,
   "postcode":"1218",
   "city":"København"
 },
 {
   "municipalityCode":101,
   "postcode":"1219",
   "city":"København"
 },
 {
   "municipalityCode":101,
   "postcode":"1220",
   "city":"København"
 },
 {
   "municipalityCode":101,
   "postcode":"1221",
   "city":"København"
 },
 {
   "municipalityCode":101,
   "postcode":"1250",
   "city":"København"
 },
 {
   "municipalityCode":101,
   "postcode":"1251",
   "city":"København"
 },
 {
   "municipalityCode":101,
   "postcode":"1252",
   "city":"København"
 },
 {
   "municipalityCode":101,
   "postcode":"1253",
   "city":"København"
 },
 {
   "municipalityCode":101,
   "postcode":"1254",
   "city":"København"
 },
 {
   "municipalityCode":101,
   "postcode":"1255",
   "city":"København"
 },
 {
   "municipalityCode":101,
   "postcode":"1256",
   "city":"København"
 },
 {
   "municipalityCode":101,
   "postcode":"1257",
   "city":"København"
 },
 {
   "municipalityCode":101,
   "postcode":"1258",
   "city":"København"
 },
 {
   "municipalityCode":101,
   "postcode":"1259",
   "city":"København"
 },
 {
   "municipalityCode":101,
   "postcode":"1260",
   "city":"København"
 },
 {
   "municipalityCode":101,
   "postcode":"1261",
   "city":"København"
 },
 {
   "municipalityCode":101,
   "postcode":"1263",
   "city":"København"
 },
 {
   "municipalityCode":101,
   "postcode":"1264",
   "city":"København"
 },
 {
   "municipalityCode":101,
   "postcode":"1265",
   "city":"København"
 },
 {
   "municipalityCode":101,
   "postcode":"1266",
   "city":"København"
 },
 {
   "municipalityCode":101,
   "postcode":"1267",
   "city":"København"
 },
 {
   "municipalityCode":101,
   "postcode":"1268",
   "city":"København"
 },
 {
   "municipalityCode":101,
   "postcode":"1270",
   "city":"København"
 },
 {
   "municipalityCode":101,
   "postcode":"1271",
   "city":"København"
 },
 {
   "municipalityCode":101,
   "postcode":"1300",
   "city":"København"
 },
 {
   "municipalityCode":101,
   "postcode":"1301",
   "city":"København"
 },
 {
   "municipalityCode":101,
   "postcode":"1302",
   "city":"København"
 },
 {
   "municipalityCode":101,
   "postcode":"1303",
   "city":"København"
 },
 {
   "municipalityCode":101,
   "postcode":"1304",
   "city":"København"
 },
 {
   "municipalityCode":101,
   "postcode":"1306",
   "city":"København"
 },
 {
   "municipalityCode":101,
   "postcode":"1307",
   "city":"København"
 },
 {
   "municipalityCode":101,
   "postcode":"1308",
   "city":"København"
 },
 {
   "municipalityCode":101,
   "postcode":"1309",
   "city":"København"
 },
 {
   "municipalityCode":101,
   "postcode":"1310",
   "city":"København"
 },
 {
   "municipalityCode":101,
   "postcode":"1311",
   "city":"København"
 },
 {
   "municipalityCode":101,
   "postcode":"1312",
   "city":"København"
 },
 {
   "municipalityCode":101,
   "postcode":"1313",
   "city":"København"
 },
 {
   "municipalityCode":101,
   "postcode":"1314",
   "city":"København"
 },
 {
   "municipalityCode":101,
   "postcode":"1315",
   "city":"København"
 },
 {
   "municipalityCode":101,
   "postcode":"1316",
   "city":"København"
 },
 {
   "municipalityCode":101,
   "postcode":"1317",
   "city":"København"
 },
 {
   "municipalityCode":101,
   "postcode":"1318",
   "city":"København"
 },
 {
   "municipalityCode":101,
   "postcode":"1319",
   "city":"København"
 },
 {
   "municipalityCode":101,
   "postcode":"1320",
   "city":"København"
 },
 {
   "municipalityCode":101,
   "postcode":"1321",
   "city":"København"
 },
 {
   "municipalityCode":101,
   "postcode":"1322",
   "city":"København"
 },
 {
   "municipalityCode":101,
   "postcode":"1323",
   "city":"København"
 },
 {
   "municipalityCode":101,
   "postcode":"1324",
   "city":"København"
 },
 {
   "municipalityCode":101,
   "postcode":"1325",
   "city":"København"
 },
 {
   "municipalityCode":101,
   "postcode":"1326",
   "city":"København"
 },
 {
   "municipalityCode":101,
   "postcode":"1327",
   "city":"København"
 },
 {
   "municipalityCode":101,
   "postcode":"1328",
   "city":"København"
 },
 {
   "municipalityCode":101,
   "postcode":"1329",
   "city":"København"
 },
 {
   "municipalityCode":101,
   "postcode":"1350",
   "city":"København"
 },
 {
   "municipalityCode":101,
   "postcode":"1352",
   "city":"København"
 },
 {
   "municipalityCode":101,
   "postcode":"1353",
   "city":"København"
 },
 {
   "municipalityCode":101,
   "postcode":"1354",
   "city":"København"
 },
 {
   "municipalityCode":101,
   "postcode":"1355",
   "city":"København"
 },
 {
   "municipalityCode":101,
   "postcode":"1356",
   "city":"København"
 },
 {
   "municipalityCode":101,
   "postcode":"1357",
   "city":"København"
 },
 {
   "municipalityCode":101,
   "postcode":"1358",
   "city":"København"
 },
 {
   "municipalityCode":101,
   "postcode":"1359",
   "city":"København"
 },
 {
   "municipalityCode":101,
   "postcode":"1360",
   "city":"København"
 },
 {
   "municipalityCode":101,
   "postcode":"1361",
   "city":"København"
 },
 {
   "municipalityCode":101,
   "postcode":"1362",
   "city":"København"
 },
 {
   "municipalityCode":101,
   "postcode":"1363",
   "city":"København"
 },
 {
   "municipalityCode":101,
   "postcode":"1364",
   "city":"København"
 },
 {
   "municipalityCode":101,
   "postcode":"1365",
   "city":"København"
 },
 {
   "municipalityCode":101,
   "postcode":"1366",
   "city":"København"
 },
 {
   "municipalityCode":101,
   "postcode":"1367",
   "city":"København"
 },
 {
   "municipalityCode":101,
   "postcode":"1368",
   "city":"København"
 },
 {
   "municipalityCode":101,
   "postcode":"1369",
   "city":"København"
 },
 {
   "municipalityCode":101,
   "postcode":"1370",
   "city":"København"
 },
 {
   "municipalityCode":101,
   "postcode":"1371",
   "city":"København"
 },
 {
   "municipalityCode":101,
   "postcode":"1400",
   "city":"København"
 },
 {
   "municipalityCode":101,
   "postcode":"1401",
   "city":"København"
 },
 {
   "municipalityCode":101,
   "postcode":"1402",
   "city":"København"
 },
 {
   "municipalityCode":101,
   "postcode":"1403",
   "city":"København"
 },
 {
   "municipalityCode":101,
   "postcode":"1406",
   "city":"København"
 },
 {
   "municipalityCode":101,
   "postcode":"1407",
   "city":"København"
 },
 {
   "municipalityCode":101,
   "postcode":"1408",
   "city":"København"
 },
 {
   "municipalityCode":101,
   "postcode":"1409",
   "city":"København"
 },
 {
   "municipalityCode":101,
   "postcode":"1410",
   "city":"København"
 },
 {
   "municipalityCode":101,
   "postcode":"1411",
   "city":"København"
 },
 {
   "municipalityCode":101,
   "postcode":"1412",
   "city":"København"
 },
 {
   "municipalityCode":101,
   "postcode":"1413",
   "city":"København"
 },
 {
   "municipalityCode":101,
   "postcode":"1414",
   "city":"København"
 },
 {
   "municipalityCode":101,
   "postcode":"1415",
   "city":"København"
 },
 {
   "municipalityCode":101,
   "postcode":"1416",
   "city":"København"
 },
 {
   "municipalityCode":101,
   "postcode":"1417",
   "city":"København"
 },
 {
   "municipalityCode":101,
   "postcode":"1418",
   "city":"København"
 },
 {
   "municipalityCode":101,
   "postcode":"1419",
   "city":"København"
 },
 {
   "municipalityCode":101,
   "postcode":"1420",
   "city":"København"
 },
 {
   "municipalityCode":101,
   "postcode":"1421",
   "city":"København"
 },
 {
   "municipalityCode":101,
   "postcode":"1422",
   "city":"København"
 },
 {
   "municipalityCode":101,
   "postcode":"1423",
   "city":"København"
 },
 {
   "municipalityCode":101,
   "postcode":"1424",
   "city":"København"
 },
 {
   "municipalityCode":101,
   "postcode":"1425",
   "city":"København"
 },
 {
   "municipalityCode":101,
   "postcode":"1426",
   "city":"København"
 },
 {
   "municipalityCode":101,
   "postcode":"1427",
   "city":"København"
 },
 {
   "municipalityCode":101,
   "postcode":"1428",
   "city":"København"
 },
 {
   "municipalityCode":101,
   "postcode":"1429",
   "city":"København"
 },
 {
   "municipalityCode":101,
   "postcode":"1430",
   "city":"København"
 },
 {
   "municipalityCode":101,
   "postcode":"1431",
   "city":"København"
 },
 {
   "municipalityCode":101,
   "postcode":"1432",
   "city":"København"
 },
 {
   "municipalityCode":101,
   "postcode":"1433",
   "city":"København"
 },
 {
   "municipalityCode":101,
   "postcode":"1434",
   "city":"København"
 },
 {
   "municipalityCode":101,
   "postcode":"1435",
   "city":"København"
 },
 {
   "municipalityCode":101,
   "postcode":"1436",
   "city":"København"
 },
 {
   "municipalityCode":101,
   "postcode":"1437",
   "city":"København"
 },
 {
   "municipalityCode":101,
   "postcode":"1438",
   "city":"København"
 },
 {
   "municipalityCode":101,
   "postcode":"1439",
   "city":"København"
 },
 {
   "municipalityCode":101,
   "postcode":"1440",
   "city":"København"
 },
 {
   "municipalityCode":101,
   "postcode":"1441",
   "city":"København"
 },
 {
   "municipalityCode":101,
   "postcode":"1450",
   "city":"København"
 },
 {
   "municipalityCode":101,
   "postcode":"1451",
   "city":"København"
 },
 {
   "municipalityCode":101,
   "postcode":"1452",
   "city":"København"
 },
 {
   "municipalityCode":101,
   "postcode":"1453",
   "city":"København"
 },
 {
   "municipalityCode":101,
   "postcode":"1454",
   "city":"København"
 },
 {
   "municipalityCode":101,
   "postcode":"1455",
   "city":"København"
 },
 {
   "municipalityCode":101,
   "postcode":"1456",
   "city":"København"
 },
 {
   "municipalityCode":101,
   "postcode":"1457",
   "city":"København"
 },
 {
   "municipalityCode":101,
   "postcode":"1458",
   "city":"København"
 },
 {
   "municipalityCode":101,
   "postcode":"1459",
   "city":"København"
 },
 {
   "municipalityCode":101,
   "postcode":"1460",
   "city":"København"
 },
 {
   "municipalityCode":101,
   "postcode":"1461",
   "city":"København"
 },
 {
   "municipalityCode":101,
   "postcode":"1462",
   "city":"København"
 },
 {
   "municipalityCode":101,
   "postcode":"1463",
   "city":"København"
 },
 {
   "municipalityCode":101,
   "postcode":"1464",
   "city":"København"
 },
 {
   "municipalityCode":101,
   "postcode":"1465",
   "city":"København"
 },
 {
   "municipalityCode":101,
   "postcode":"1466",
   "city":"København"
 },
 {
   "municipalityCode":101,
   "postcode":"1467",
   "city":"København"
 },
 {
   "municipalityCode":101,
   "postcode":"1468",
   "city":"København"
 },
 {
   "municipalityCode":101,
   "postcode":"1470",
   "city":"København"
 },
 {
   "municipalityCode":101,
   "postcode":"1471",
   "city":"København"
 },
 {
   "municipalityCode":101,
   "postcode":"1472",
   "city":"København"
 },
 {
   "municipalityCode":101,
   "postcode":"1473",
   "city":"København"
 },
 {
   "municipalityCode":101,
   "postcode":"1550",
   "city":"København"
 },
 {
   "municipalityCode":101,
   "postcode":"1551",
   "city":"København"
 },
 {
   "municipalityCode":101,
   "postcode":"1552",
   "city":"København"
 },
 {
   "municipalityCode":101,
   "postcode":"1553",
   "city":"København"
 },
 {
   "municipalityCode":101,
   "postcode":"1554",
   "city":"København"
 },
 {
   "municipalityCode":101,
   "postcode":"1555",
   "city":"København"
 },
 {
   "municipalityCode":101,
   "postcode":"1556",
   "city":"København"
 },
 {
   "municipalityCode":101,
   "postcode":"1557",
   "city":"København"
 },
 {
   "municipalityCode":101,
   "postcode":"1558",
   "city":"København"
 },
 {
   "municipalityCode":101,
   "postcode":"1559",
   "city":"København"
 },
 {
   "municipalityCode":101,
   "postcode":"1560",
   "city":"København"
 },
 {
   "municipalityCode":101,
   "postcode":"1561",
   "city":"København"
 },
 {
   "municipalityCode":101,
   "postcode":"1562",
   "city":"København"
 },
 {
   "municipalityCode":101,
   "postcode":"1563",
   "city":"København"
 },
 {
   "municipalityCode":101,
   "postcode":"1564",
   "city":"København"
 },
 {
   "municipalityCode":101,
   "postcode":"1567",
   "city":"København"
 },
 {
   "municipalityCode":101,
   "postcode":"1568",
   "city":"København"
 },
 {
   "municipalityCode":101,
   "postcode":"1569",
   "city":"København"
 },
 {
   "municipalityCode":101,
   "postcode":"1570",
   "city":"København"
 },
 {
   "municipalityCode":101,
   "postcode":"1571",
   "city":"København"
 },
 {
   "municipalityCode":101,
   "postcode":"1572",
   "city":"København"
 },
 {
   "municipalityCode":101,
   "postcode":"1573",
   "city":"København"
 },
 {
   "municipalityCode":101,
   "postcode":"1574",
   "city":"København"
 },
 {
   "municipalityCode":101,
   "postcode":"1575",
   "city":"København"
 },
 {
   "municipalityCode":101,
   "postcode":"1576",
   "city":"København"
 },
 {
   "municipalityCode":101,
   "postcode":"1577",
   "city":"København"
 },
 {
   "municipalityCode":101,
   "postcode":"1600",
   "city":"København"
 },
 {
   "municipalityCode":101,
   "postcode":"1601",
   "city":"København"
 },
 {
   "municipalityCode":101,
   "postcode":"1602",
   "city":"København"
 },
 {
   "municipalityCode":101,
   "postcode":"1603",
   "city":"København"
 },
 {
   "municipalityCode":101,
   "postcode":"1604",
   "city":"København"
 },
 {
   "municipalityCode":101,
   "postcode":"1605",
   "city":"København"
 },
 {
   "municipalityCode":101,
   "postcode":"1606",
   "city":"København"
 },
 {
   "municipalityCode":101,
   "postcode":"1607",
   "city":"København"
 },
 {
   "municipalityCode":101,
   "postcode":"1608",
   "city":"København"
 },
 {
   "municipalityCode":101,
   "postcode":"1609",
   "city":"København"
 },
 {
   "municipalityCode":101,
   "postcode":"1610",
   "city":"København"
 },
 {
   "municipalityCode":101,
   "postcode":"1611",
   "city":"København"
 },
 {
   "municipalityCode":101,
   "postcode":"1612",
   "city":"København"
 },
 {
   "municipalityCode":101,
   "postcode":"1613",
   "city":"København"
 },
 {
   "municipalityCode":101,
   "postcode":"1614",
   "city":"København"
 },
 {
   "municipalityCode":101,
   "postcode":"1615",
   "city":"København"
 },
 {
   "municipalityCode":101,
   "postcode":"1616",
   "city":"København"
 },
 {
   "municipalityCode":101,
   "postcode":"1617",
   "city":"København"
 },
 {
   "municipalityCode":101,
   "postcode":"1618",
   "city":"København"
 },
 {
   "municipalityCode":101,
   "postcode":"1619",
   "city":"København"
 },
 {
   "municipalityCode":101,
   "postcode":"1620",
   "city":"København"
 },
 {
   "municipalityCode":101,
   "postcode":"1621",
   "city":"København"
 },
 {
   "municipalityCode":101,
   "postcode":"1622",
   "city":"København"
 },
 {
   "municipalityCode":101,
   "postcode":"1623",
   "city":"København"
 },
 {
   "municipalityCode":101,
   "postcode":"1624",
   "city":"København"
 },
 {
   "municipalityCode":101,
   "postcode":"1631",
   "city":"København"
 },
 {
   "municipalityCode":101,
   "postcode":"1632",
   "city":"København"
 },
 {
   "municipalityCode":101,
   "postcode":"1633",
   "city":"København"
 },
 {
   "municipalityCode":101,
   "postcode":"1634",
   "city":"København"
 },
 {
   "municipalityCode":101,
   "postcode":"1635",
   "city":"København"
 },
 {
   "municipalityCode":101,
   "postcode":"1650",
   "city":"København"
 },
 {
   "municipalityCode":101,
   "postcode":"1651",
   "city":"København"
 },
 {
   "municipalityCode":101,
   "postcode":"1652",
   "city":"København"
 },
 {
   "municipalityCode":101,
   "postcode":"1653",
   "city":"København"
 },
 {
   "municipalityCode":101,
   "postcode":"1654",
   "city":"København"
 },
 {
   "municipalityCode":101,
   "postcode":"1655",
   "city":"København"
 },
 {
   "municipalityCode":101,
   "postcode":"1656",
   "city":"København"
 },
 {
   "municipalityCode":101,
   "postcode":"1657",
   "city":"København"
 },
 {
   "municipalityCode":101,
   "postcode":"1658",
   "city":"København"
 },
 {
   "municipalityCode":101,
   "postcode":"1659",
   "city":"København"
 },
 {
   "municipalityCode":101,
   "postcode":"1660",
   "city":"København"
 },
 {
   "municipalityCode":101,
   "postcode":"1661",
   "city":"København"
 },
 {
   "municipalityCode":101,
   "postcode":"1662",
   "city":"København"
 },
 {
   "municipalityCode":101,
   "postcode":"1663",
   "city":"København"
 },
 {
   "municipalityCode":101,
   "postcode":"1664",
   "city":"København"
 },
 {
   "municipalityCode":101,
   "postcode":"1665",
   "city":"København"
 },
 {
   "municipalityCode":101,
   "postcode":"1666",
   "city":"København"
 },
 {
   "municipalityCode":101,
   "postcode":"1667",
   "city":"København"
 },
 {
   "municipalityCode":101,
   "postcode":"1668",
   "city":"København"
 },
 {
   "municipalityCode":101,
   "postcode":"1669",
   "city":"København"
 },
 {
   "municipalityCode":101,
   "postcode":"1670",
   "city":"København"
 },
 {
   "municipalityCode":101,
   "postcode":"1671",
   "city":"København"
 },
 {
   "municipalityCode":101,
   "postcode":"1672",
   "city":"København"
 },
 {
   "municipalityCode":101,
   "postcode":"1673",
   "city":"København"
 },
 {
   "municipalityCode":101,
   "postcode":"1674",
   "city":"København"
 },
 {
   "municipalityCode":101,
   "postcode":"1675",
   "city":"København"
 },
 {
   "municipalityCode":101,
   "postcode":"1676",
   "city":"København"
 },
 {
   "municipalityCode":101,
   "postcode":"1677",
   "city":"København"
 },
 {
   "municipalityCode":101,
   "postcode":"1699",
   "city":"København"
 },
 {
   "municipalityCode":101,
   "postcode":"1700",
   "city":"København"
 },
 {
   "municipalityCode":101,
   "postcode":"1701",
   "city":"København"
 },
 {
   "municipalityCode":101,
   "postcode":"1702",
   "city":"København"
 },
 {
   "municipalityCode":101,
   "postcode":"1703",
   "city":"København"
 },
 {
   "municipalityCode":101,
   "postcode":"1704",
   "city":"København"
 },
 {
   "municipalityCode":101,
   "postcode":"1705",
   "city":"København"
 },
 {
   "municipalityCode":101,
   "postcode":"1706",
   "city":"København"
 },
 {
   "municipalityCode":101,
   "postcode":"1707",
   "city":"København"
 },
 {
   "municipalityCode":101,
   "postcode":"1708",
   "city":"København"
 },
 {
   "municipalityCode":101,
   "postcode":"1709",
   "city":"København"
 },
 {
   "municipalityCode":101,
   "postcode":"1710",
   "city":"København"
 },
 {
   "municipalityCode":101,
   "postcode":"1711",
   "city":"København"
 },
 {
   "municipalityCode":101,
   "postcode":"1712",
   "city":"København"
 },
 {
   "municipalityCode":101,
   "postcode":"1714",
   "city":"København"
 },
 {
   "municipalityCode":101,
   "postcode":"1715",
   "city":"København"
 },
 {
   "municipalityCode":101,
   "postcode":"1716",
   "city":"København"
 },
 {
   "municipalityCode":101,
   "postcode":"1717",
   "city":"København"
 },
 {
   "municipalityCode":101,
   "postcode":"1718",
   "city":"København"
 },
 {
   "municipalityCode":101,
   "postcode":"1719",
   "city":"København"
 },
 {
   "municipalityCode":101,
   "postcode":"1720",
   "city":"København"
 },
 {
   "municipalityCode":101,
   "postcode":"1721",
   "city":"København"
 },
 {
   "municipalityCode":101,
   "postcode":"1722",
   "city":"København"
 },
 {
   "municipalityCode":101,
   "postcode":"1723",
   "city":"København"
 },
 {
   "municipalityCode":101,
   "postcode":"1724",
   "city":"København"
 },
 {
   "municipalityCode":101,
   "postcode":"1725",
   "city":"København"
 },
 {
   "municipalityCode":101,
   "postcode":"1726",
   "city":"København"
 },
 {
   "municipalityCode":101,
   "postcode":"1727",
   "city":"København"
 },
 {
   "municipalityCode":101,
   "postcode":"1728",
   "city":"København"
 },
 {
   "municipalityCode":101,
   "postcode":"1729",
   "city":"København"
 },
 {
   "municipalityCode":101,
   "postcode":"1730",
   "city":"København"
 },
 {
   "municipalityCode":101,
   "postcode":"1731",
   "city":"København"
 },
 {
   "municipalityCode":101,
   "postcode":"1732",
   "city":"København"
 },
 {
   "municipalityCode":101,
   "postcode":"1733",
   "city":"København"
 },
 {
   "municipalityCode":101,
   "postcode":"1734",
   "city":"København"
 },
 {
   "municipalityCode":101,
   "postcode":"1735",
   "city":"København"
 },
 {
   "municipalityCode":101,
   "postcode":"1736",
   "city":"København"
 },
 {
   "municipalityCode":101,
   "postcode":"1737",
   "city":"København"
 },
 {
   "municipalityCode":101,
   "postcode":"1738",
   "city":"København"
 },
 {
   "municipalityCode":101,
   "postcode":"1739",
   "city":"København"
 },
 {
   "municipalityCode":101,
   "postcode":"1749",
   "city":"København"
 },
 {
   "municipalityCode":101,
   "postcode":"1750",
   "city":"København"
 },
 {
   "municipalityCode":101,
   "postcode":"1751",
   "city":"København"
 },
 {
   "municipalityCode":101,
   "postcode":"1752",
   "city":"København"
 },
 {
   "municipalityCode":101,
   "postcode":"1753",
   "city":"København"
 },
 {
   "municipalityCode":101,
   "postcode":"1754",
   "city":"København"
 },
 {
   "municipalityCode":101,
   "postcode":"1755",
   "city":"København"
 },
 {
   "municipalityCode":101,
   "postcode":"1756",
   "city":"København"
 },
 {
   "municipalityCode":101,
   "postcode":"1757",
   "city":"København"
 },
 {
   "municipalityCode":101,
   "postcode":"1758",
   "city":"København"
 },
 {
   "municipalityCode":101,
   "postcode":"1759",
   "city":"København"
 },
 {
   "municipalityCode":101,
   "postcode":"1760",
   "city":"København"
 },
 {
   "municipalityCode":101,
   "postcode":"1761",
   "city":"København"
 },
 {
   "municipalityCode":101,
   "postcode":"1762",
   "city":"København"
 },
 {
   "municipalityCode":101,
   "postcode":"1763",
   "city":"København"
 },
 {
   "municipalityCode":101,
   "postcode":"1764",
   "city":"København"
 },
 {
   "municipalityCode":101,
   "postcode":"1765",
   "city":"København"
 },
 {
   "municipalityCode":101,
   "postcode":"1766",
   "city":"København"
 },
 {
   "municipalityCode":101,
   "postcode":"1770",
   "city":"København"
 },
 {
   "municipalityCode":101,
   "postcode":"1771",
   "city":"København"
 },
 {
   "municipalityCode":101,
   "postcode":"1772",
   "city":"København"
 },
 {
   "municipalityCode":101,
   "postcode":"1773",
   "city":"København"
 },
 {
   "municipalityCode":101,
   "postcode":"1774",
   "city":"København"
 },
 {
   "municipalityCode":101,
   "postcode":"1775",
   "city":"København"
 },
 {
   "municipalityCode":101,
   "postcode":"1777",
   "city":"København"
 },
 {
   "municipalityCode":101,
   "postcode":"1799",
   "city":"København"
 },
 {
   "municipalityCode":101,
   "postcode":"1810",
   "city":"Frederiksberg"
 },
 {
   "municipalityCode":101,
   "postcode":"2000",
   "city":"Frederiksberg"
 },
 {
   "municipalityCode":101,
   "postcode":"2100",
   "city":"København"
 },
 {
   "municipalityCode":101,
   "postcode":"2150",
   "city":"Nordhavn"
 },
 {
   "municipalityCode":101,
   "postcode":"2200",
   "city":"København"
 },
 {
   "municipalityCode":101,
   "postcode":"2300",
   "city":"København"
 },
 {
   "municipalityCode":101,
   "postcode":"2400",
   "city":"København"
 },
 {
   "municipalityCode":101,
   "postcode":"2450",
   "city":"København"
 },
 {
   "municipalityCode":101,
   "postcode":"2500",
   "city":"Valby"
 },
 {
   "municipalityCode":101,
   "postcode":"2610",
   "city":"Rødovre"
 },
 {
   "municipalityCode":101,
   "postcode":"2650",
   "city":"Hvidovre"
 },
 {
   "municipalityCode":101,
   "postcode":"2700",
   "city":"Brønshøj"
 },
 {
   "municipalityCode":101,
   "postcode":"2720",
   "city":"Vanløse"
 },
 {
   "municipalityCode":101,
   "postcode":"2730",
   "city":"Herlev"
 },
 {
   "municipalityCode":101,
   "postcode":"2770",
   "city":"Kastrup"
 },
 {
   "municipalityCode":101,
   "postcode":"2860",
   "city":"Søborg"
 },
 {
   "municipalityCode":101,
   "postcode":"2900",
   "city":"Hellerup"
 },
 {
   "municipalityCode":147,
   "postcode":"1800",
   "city":"Frederiksberg"
 },
 {
   "municipalityCode":147,
   "postcode":"1801",
   "city":"Frederiksberg"
 },
 {
   "municipalityCode":147,
   "postcode":"1802",
   "city":"Frederiksberg"
 },
 {
   "municipalityCode":147,
   "postcode":"1803",
   "city":"Frederiksberg"
 },
 {
   "municipalityCode":147,
   "postcode":"1804",
   "city":"Frederiksberg"
 },
 {
   "municipalityCode":147,
   "postcode":"1805",
   "city":"Frederiksberg"
 },
 {
   "municipalityCode":147,
   "postcode":"1806",
   "city":"Frederiksberg"
 },
 {
   "municipalityCode":147,
   "postcode":"1807",
   "city":"Frederiksberg"
 },
 {
   "municipalityCode":147,
   "postcode":"1808",
   "city":"Frederiksberg"
 },
 {
   "municipalityCode":147,
   "postcode":"1809",
   "city":"Frederiksberg"
 },
 {
   "municipalityCode":147,
   "postcode":"1810",
   "city":"Frederiksberg"
 },
 {
   "municipalityCode":147,
   "postcode":"1811",
   "city":"Frederiksberg"
 },
 {
   "municipalityCode":147,
   "postcode":"1812",
   "city":"Frederiksberg"
 },
 {
   "municipalityCode":147,
   "postcode":"1813",
   "city":"Frederiksberg"
 },
 {
   "municipalityCode":147,
   "postcode":"1814",
   "city":"Frederiksberg"
 },
 {
   "municipalityCode":147,
   "postcode":"1815",
   "city":"Frederiksberg"
 },
 {
   "municipalityCode":147,
   "postcode":"1816",
   "city":"Frederiksberg"
 },
 {
   "municipalityCode":147,
   "postcode":"1817",
   "city":"Frederiksberg"
 },
 {
   "municipalityCode":147,
   "postcode":"1818",
   "city":"Frederiksberg"
 },
 {
   "municipalityCode":147,
   "postcode":"1819",
   "city":"Frederiksberg"
 },
 {
   "municipalityCode":147,
   "postcode":"1820",
   "city":"Frederiksberg"
 },
 {
   "municipalityCode":147,
   "postcode":"1822",
   "city":"Frederiksberg"
 },
 {
   "municipalityCode":147,
   "postcode":"1823",
   "city":"Frederiksberg"
 },
 {
   "municipalityCode":147,
   "postcode":"1824",
   "city":"Frederiksberg"
 },
 {
   "municipalityCode":147,
   "postcode":"1825",
   "city":"Frederiksberg"
 },
 {
   "municipalityCode":147,
   "postcode":"1826",
   "city":"Frederiksberg"
 },
 {
   "municipalityCode":147,
   "postcode":"1827",
   "city":"Frederiksberg"
 },
 {
   "municipalityCode":147,
   "postcode":"1828",
   "city":"Frederiksberg"
 },
 {
   "municipalityCode":147,
   "postcode":"1829",
   "city":"Frederiksberg"
 },
 {
   "municipalityCode":147,
   "postcode":"1850",
   "city":"Frederiksberg"
 },
 {
   "municipalityCode":147,
   "postcode":"1851",
   "city":"Frederiksberg"
 },
 {
   "municipalityCode":147,
   "postcode":"1852",
   "city":"Frederiksberg"
 },
 {
   "municipalityCode":147,
   "postcode":"1853",
   "city":"Frederiksberg"
 },
 {
   "municipalityCode":147,
   "postcode":"1854",
   "city":"Frederiksberg"
 },
 {
   "municipalityCode":147,
   "postcode":"1855",
   "city":"Frederiksberg"
 },
 {
   "municipalityCode":147,
   "postcode":"1856",
   "city":"Frederiksberg"
 },
 {
   "municipalityCode":147,
   "postcode":"1857",
   "city":"Frederiksberg"
 },
 {
   "municipalityCode":147,
   "postcode":"1860",
   "city":"Frederiksberg"
 },
 {
   "municipalityCode":147,
   "postcode":"1861",
   "city":"Frederiksberg"
 },
 {
   "municipalityCode":147,
   "postcode":"1862",
   "city":"Frederiksberg"
 },
 {
   "municipalityCode":147,
   "postcode":"1863",
   "city":"Frederiksberg"
 },
 {
   "municipalityCode":147,
   "postcode":"1864",
   "city":"Frederiksberg"
 },
 {
   "municipalityCode":147,
   "postcode":"1865",
   "city":"Frederiksberg"
 },
 {
   "municipalityCode":147,
   "postcode":"1866",
   "city":"Frederiksberg"
 },
 {
   "municipalityCode":147,
   "postcode":"1867",
   "city":"Frederiksberg"
 },
 {
   "municipalityCode":147,
   "postcode":"1868",
   "city":"Frederiksberg"
 },
 {
   "municipalityCode":147,
   "postcode":"1870",
   "city":"Frederiksberg"
 },
 {
   "municipalityCode":147,
   "postcode":"1871",
   "city":"Frederiksberg"
 },
 {
   "municipalityCode":147,
   "postcode":"1872",
   "city":"Frederiksberg"
 },
 {
   "municipalityCode":147,
   "postcode":"1873",
   "city":"Frederiksberg"
 },
 {
   "municipalityCode":147,
   "postcode":"1874",
   "city":"Frederiksberg"
 },
 {
   "municipalityCode":147,
   "postcode":"1875",
   "city":"Frederiksberg"
 },
 {
   "municipalityCode":147,
   "postcode":"1876",
   "city":"Frederiksberg"
 },
 {
   "municipalityCode":147,
   "postcode":"1877",
   "city":"Frederiksberg"
 },
 {
   "municipalityCode":147,
   "postcode":"1878",
   "city":"Frederiksberg"
 },
 {
   "municipalityCode":147,
   "postcode":"1879",
   "city":"Frederiksberg"
 },
 {
   "municipalityCode":147,
   "postcode":"1900",
   "city":"Frederiksberg"
 },
 {
   "municipalityCode":147,
   "postcode":"1901",
   "city":"Frederiksberg"
 },
 {
   "municipalityCode":147,
   "postcode":"1902",
   "city":"Frederiksberg"
 },
 {
   "municipalityCode":147,
   "postcode":"1903",
   "city":"Frederiksberg"
 },
 {
   "municipalityCode":147,
   "postcode":"1904",
   "city":"Frederiksberg"
 },
 {
   "municipalityCode":147,
   "postcode":"1905",
   "city":"Frederiksberg"
 },
 {
   "municipalityCode":147,
   "postcode":"1906",
   "city":"Frederiksberg"
 },
 {
   "municipalityCode":147,
   "postcode":"1908",
   "city":"Frederiksberg"
 },
 {
   "municipalityCode":147,
   "postcode":"1909",
   "city":"Frederiksberg"
 },
 {
   "municipalityCode":147,
   "postcode":"1910",
   "city":"Frederiksberg"
 },
 {
   "municipalityCode":147,
   "postcode":"1911",
   "city":"Frederiksberg"
 },
 {
   "municipalityCode":147,
   "postcode":"1912",
   "city":"Frederiksberg"
 },
 {
   "municipalityCode":147,
   "postcode":"1913",
   "city":"Frederiksberg"
 },
 {
   "municipalityCode":147,
   "postcode":"1914",
   "city":"Frederiksberg"
 },
 {
   "municipalityCode":147,
   "postcode":"1915",
   "city":"Frederiksberg"
 },
 {
   "municipalityCode":147,
   "postcode":"1916",
   "city":"Frederiksberg"
 },
 {
   "municipalityCode":147,
   "postcode":"1917",
   "city":"Frederiksberg"
 },
 {
   "municipalityCode":147,
   "postcode":"1920",
   "city":"Frederiksberg"
 },
 {
   "municipalityCode":147,
   "postcode":"1921",
   "city":"Frederiksberg"
 },
 {
   "municipalityCode":147,
   "postcode":"1922",
   "city":"Frederiksberg"
 },
 {
   "municipalityCode":147,
   "postcode":"1923",
   "city":"Frederiksberg"
 },
 {
   "municipalityCode":147,
   "postcode":"1924",
   "city":"Frederiksberg"
 },
 {
   "municipalityCode":147,
   "postcode":"1925",
   "city":"Frederiksberg"
 },
 {
   "municipalityCode":147,
   "postcode":"1926",
   "city":"Frederiksberg"
 },
 {
   "municipalityCode":147,
   "postcode":"1927",
   "city":"Frederiksberg"
 },
 {
   "municipalityCode":147,
   "postcode":"1928",
   "city":"Frederiksberg"
 },
 {
   "municipalityCode":147,
   "postcode":"1950",
   "city":"Frederiksberg"
 },
 {
   "municipalityCode":147,
   "postcode":"1951",
   "city":"Frederiksberg"
 },
 {
   "municipalityCode":147,
   "postcode":"1952",
   "city":"Frederiksberg"
 },
 {
   "municipalityCode":147,
   "postcode":"1953",
   "city":"Frederiksberg"
 },
 {
   "municipalityCode":147,
   "postcode":"1954",
   "city":"Frederiksberg"
 },
 {
   "municipalityCode":147,
   "postcode":"1955",
   "city":"Frederiksberg"
 },
 {
   "municipalityCode":147,
   "postcode":"1956",
   "city":"Frederiksberg"
 },
 {
   "municipalityCode":147,
   "postcode":"1957",
   "city":"Frederiksberg"
 },
 {
   "municipalityCode":147,
   "postcode":"1958",
   "city":"Frederiksberg"
 },
 {
   "municipalityCode":147,
   "postcode":"1959",
   "city":"Frederiksberg"
 },
 {
   "municipalityCode":147,
   "postcode":"1960",
   "city":"Frederiksberg"
 },
 {
   "municipalityCode":147,
   "postcode":"1961",
   "city":"Frederiksberg"
 },
 {
   "municipalityCode":147,
   "postcode":"1962",
   "city":"Frederiksberg"
 },
 {
   "municipalityCode":147,
   "postcode":"1963",
   "city":"Frederiksberg"
 },
 {
   "municipalityCode":147,
   "postcode":"1964",
   "city":"Frederiksberg"
 },
 {
   "municipalityCode":147,
   "postcode":"1965",
   "city":"Frederiksberg"
 },
 {
   "municipalityCode":147,
   "postcode":"1966",
   "city":"Frederiksberg"
 },
 {
   "municipalityCode":147,
   "postcode":"1967",
   "city":"Frederiksberg"
 },
 {
   "municipalityCode":147,
   "postcode":"1970",
   "city":"Frederiksberg"
 },
 {
   "municipalityCode":147,
   "postcode":"1971",
   "city":"Frederiksberg"
 },
 {
   "municipalityCode":147,
   "postcode":"1972",
   "city":"Frederiksberg"
 },
 {
   "municipalityCode":147,
   "postcode":"1973",
   "city":"Frederiksberg"
 },
 {
   "municipalityCode":147,
   "postcode":"1974",
   "city":"Frederiksberg"
 },
 {
   "municipalityCode":147,
   "postcode":"2000",
   "city":"Frederiksberg"
 },
 {
   "municipalityCode":147,
   "postcode":"2200",
   "city":"København"
 },
 {
   "municipalityCode":147,
   "postcode":"2500",
   "city":"Valby"
 },
 {
   "municipalityCode":147,
   "postcode":"2720",
   "city":"Vanløse"
 },
 {
   "municipalityCode":151,
   "postcode":"2730",
   "city":"Herlev"
 },
 {
   "municipalityCode":151,
   "postcode":"2740",
   "city":"Skovlunde"
 },
 {
   "municipalityCode":151,
   "postcode":"2750",
   "city":"Ballerup"
 },
 {
   "municipalityCode":151,
   "postcode":"2760",
   "city":"Måløv"
 },
 {
   "municipalityCode":151,
   "postcode":"3500",
   "city":"Værløse"
 },
 {
   "municipalityCode":153,
   "postcode":"2600",
   "city":"Glostrup"
 },
 {
   "municipalityCode":153,
   "postcode":"2605",
   "city":"Brøndby"
 },
 {
   "municipalityCode":153,
   "postcode":"2620",
   "city":"Albertslund"
 },
 {
   "municipalityCode":153,
   "postcode":"2650",
   "city":"Hvidovre"
 },
 {
   "municipalityCode":153,
   "postcode":"2660",
   "city":"Brøndby"
 },
 {
   "municipalityCode":155,
   "postcode":"2791",
   "city":"Dragør"
 },
 {
   "municipalityCode":157,
   "postcode":"2820",
   "city":"Gentofte"
 },
 {
   "municipalityCode":157,
   "postcode":"2870",
   "city":"Dyssegård"
 },
 {
   "municipalityCode":157,
   "postcode":"2900",
   "city":"Hellerup"
 },
 {
   "municipalityCode":157,
   "postcode":"2920",
   "city":"Charlottenlund"
 },
 {
   "municipalityCode":157,
   "postcode":"2930",
   "city":"Klampenborg"
 },
 {
   "municipalityCode":157,
   "postcode":"2930",
   "city":"Klampenborg"
 },
 {
   "municipalityCode":173,
   "postcode":"2800",
   "city":"Kongens Lyngby"
 },
 {
   "municipalityCode":159,
   "postcode":"2820",
   "city":"Gentofte"
 },
 {
   "municipalityCode":159,
   "postcode":"2860",
   "city":"Søborg"
 },
 {
   "municipalityCode":159,
   "postcode":"2880",
   "city":"Bagsværd"
 },
 {
   "municipalityCode":159,
   "postcode":"3500",
   "city":"Værløse"
 },
 {
   "municipalityCode":161,
   "postcode":"2600",
   "city":"Glostrup"
 },
 {
   "municipalityCode":161,
   "postcode":"2605",
   "city":"Brøndby"
 },
 {
   "municipalityCode":163,
   "postcode":"2730",
   "city":"Herlev"
 },
 {
   "municipalityCode":163,
   "postcode":"2740",
   "city":"Skovlunde"
 },
 {
   "municipalityCode":163,
   "postcode":"2880",
   "city":"Bagsværd"
 },
 {
   "municipalityCode":165,
   "postcode":"2600",
   "city":"Glostrup"
 },
 {
   "municipalityCode":165,
   "postcode":"2620",
   "city":"Albertslund"
 },
 {
   "municipalityCode":165,
   "postcode":"2750",
   "city":"Ballerup"
 },
 {
   "municipalityCode":167,
   "postcode":"2610",
   "city":"Rødovre"
 },
 {
   "municipalityCode":167,
   "postcode":"2650",
   "city":"Hvidovre"
 },
 {
   "municipalityCode":167,
   "postcode":"2660",
   "city":"Brøndby"
 },
 {
   "municipalityCode":169,
   "postcode":"2630",
   "city":"Taastrup"
 },
 {
   "municipalityCode":169,
   "postcode":"2635",
   "city":"Ishøj"
 },
 {
   "municipalityCode":169,
   "postcode":"2640",
   "city":"Hedehusene"
 },
 {
   "municipalityCode":169,
   "postcode":"4000",
   "city":"Roskilde"
 },
 {
   "municipalityCode":173,
   "postcode":"2830",
   "city":"Virum"
 },
 {
   "municipalityCode":173,
   "postcode":"2840",
   "city":"Holte"
 },
 {
   "municipalityCode":173,
   "postcode":"2930",
   "city":"Klampenborg"
 },
 {
   "municipalityCode":173,
   "postcode":"3500",
   "city":"Værløse"
 },
 {
   "municipalityCode":175,
   "postcode":"2610",
   "city":"Rødovre"
 },
 {
   "municipalityCode":183,
   "postcode":"2630",
   "city":"Taastrup"
 },
 {
   "municipalityCode":183,
   "postcode":"2635",
   "city":"Ishøj"
 },
 {
   "municipalityCode":183,
   "postcode":"2640",
   "city":"Hedehusene"
 },
 {
   "municipalityCode":185,
   "postcode":"2300",
   "city":"København"
 },
 {
   "municipalityCode":185,
   "postcode":"2770",
   "city":"Kastrup"
 },
 {
   "municipalityCode":185,
   "postcode":"2791",
   "city":"Dragør"
 },
 {
   "municipalityCode":187,
   "postcode":"2625",
   "city":"Vallensbæk"
 },
 {
   "municipalityCode":187,
   "postcode":"2665",
   "city":"Vallensbæk"
 },
 {
   "municipalityCode":190,
   "postcode":"2880",
   "city":"Bagsværd"
 },
 {
   "municipalityCode":190,
   "postcode":"3460",
   "city":"Birkerød"
 },
 {
   "municipalityCode":190,
   "postcode":"3500",
   "city":"Værløse"
 },
 {
   "municipalityCode":190,
   "postcode":"3520",
   "city":"Farum"
 },
 {
   "municipalityCode":190,
   "postcode":"3540",
   "city":"Lynge"
 },
 {
   "municipalityCode":201,
   "postcode":"3400",
   "city":"Hillerød"
 },
 {
   "municipalityCode":201,
   "postcode":"3450",
   "city":"Allerød"
 },
 {
   "municipalityCode":201,
   "postcode":"3460",
   "city":"Birkerød"
 },
 {
   "municipalityCode":201,
   "postcode":"3520",
   "city":"Farum"
 },
 {
   "municipalityCode":201,
   "postcode":"3540",
   "city":"Lynge"
 },
 {
   "municipalityCode":201,
   "postcode":"3550",
   "city":"Slangerup"
 },
 {
   "municipalityCode":210,
   "postcode":"2970",
   "city":"Hørsholm"
 },
 {
   "municipalityCode":210,
   "postcode":"2980",
   "city":"Kokkedal"
 },
 {
   "municipalityCode":210,
   "postcode":"2990",
   "city":"Nivå"
 },
 {
   "municipalityCode":210,
   "postcode":"3050",
   "city":"Humlebæk"
 },
 {
   "municipalityCode":210,
   "postcode":"3060",
   "city":"Espergærde"
 },
 {
   "municipalityCode":210,
   "postcode":"3400",
   "city":"Hillerød"
 },
 {
   "municipalityCode":210,
   "postcode":"3450",
   "city":"Allerød"
 },
 {
   "municipalityCode":210,
   "postcode":"3480",
   "city":"Fredensborg"
 },
 {
   "municipalityCode":210,
   "postcode":"3490",
   "city":"Kvistgård"
 },
 {
   "municipalityCode":217,
   "postcode":"3000",
   "city":"Helsingør"
 },
 {
   "municipalityCode":217,
   "postcode":"3060",
   "city":"Espergærde"
 },
 {
   "municipalityCode":217,
   "postcode":"3070",
   "city":"Snekkersten"
 },
 {
   "municipalityCode":217,
   "postcode":"3100",
   "city":"Hornbæk"
 },
 {
   "municipalityCode":217,
   "postcode":"3140",
   "city":"Ålsgårde"
 },
 {
   "municipalityCode":217,
   "postcode":"3150",
   "city":"Hellebæk"
 },
 {
   "municipalityCode":217,
   "postcode":"3230",
   "city":"Græsted"
 },
 {
   "municipalityCode":217,
   "postcode":"3480",
   "city":"Fredensborg"
 },
 {
   "municipalityCode":217,
   "postcode":"3490",
   "city":"Kvistgård"
 },
 {
   "municipalityCode":219,
   "postcode":"3200",
   "city":"Helsinge"
 },
 {
   "municipalityCode":219,
   "postcode":"3230",
   "city":"Græsted"
 },
 {
   "municipalityCode":219,
   "postcode":"3310",
   "city":"Ølsted"
 },
 {
   "municipalityCode":219,
   "postcode":"3320",
   "city":"Skævinge"
 },
 {
   "municipalityCode":219,
   "postcode":"3330",
   "city":"Gørløse"
 },
 {
   "municipalityCode":219,
   "postcode":"3400",
   "city":"Hillerød"
 },
 {
   "municipalityCode":219,
   "postcode":"3450",
   "city":"Allerød"
 },
 {
   "municipalityCode":219,
   "postcode":"3480",
   "city":"Fredensborg"
 },
 {
   "municipalityCode":219,
   "postcode":"3540",
   "city":"Lynge"
 },
 {
   "municipalityCode":219,
   "postcode":"3550",
   "city":"Slangerup"
 },
 {
   "municipalityCode":219,
   "postcode":"3600",
   "city":"Frederikssund"
 },
 {
   "municipalityCode":223,
   "postcode":"2950",
   "city":"Vedbæk"
 },
 {
   "municipalityCode":223,
   "postcode":"2960",
   "city":"Rungsted"
 },
 {
   "municipalityCode":223,
   "postcode":"2970",
   "city":"Hørsholm"
 },
 {
   "municipalityCode":223,
   "postcode":"2980",
   "city":"Kokkedal"
 },
 {
   "municipalityCode":230,
   "postcode":"2830",
   "city":"Virum"
 },
 {
   "municipalityCode":230,
   "postcode":"2840",
   "city":"Holte"
 },
 {
   "municipalityCode":230,
   "postcode":"2850",
   "city":"Nærum"
 },
 {
   "municipalityCode":230,
   "postcode":"2942",
   "city":"Skodsborg"
 },
 {
   "municipalityCode":230,
   "postcode":"2950",
   "city":"Vedbæk"
 },
 {
   "municipalityCode":230,
   "postcode":"2970",
   "city":"Hørsholm"
 },
 {
   "municipalityCode":230,
   "postcode":"3460",
   "city":"Birkerød"
 },
 {
   "municipalityCode":240,
   "postcode":"2750",
   "city":"Ballerup"
 },
 {
   "municipalityCode":240,
   "postcode":"2765",
   "city":"Smørum"
 },
 {
   "municipalityCode":240,
   "postcode":"3500",
   "city":"Værløse"
 },
 {
   "municipalityCode":240,
   "postcode":"3520",
   "city":"Farum"
 },
 {
   "municipalityCode":240,
   "postcode":"3540",
   "city":"Lynge"
 },
 {
   "municipalityCode":240,
   "postcode":"3550",
   "city":"Slangerup"
 },
 {
   "municipalityCode":240,
   "postcode":"3600",
   "city":"Frederikssund"
 },
 {
   "municipalityCode":240,
   "postcode":"3650",
   "city":"Ølstykke"
 },
 {
   "municipalityCode":240,
   "postcode":"3660",
   "city":"Stenløse"
 },
 {
   "municipalityCode":240,
   "postcode":"3670",
   "city":"Veksø"
 },
 {
   "municipalityCode":250,
   "postcode":"3550",
   "city":"Slangerup"
 },
 {
   "municipalityCode":250,
   "postcode":"3600",
   "city":"Frederikssund"
 },
 {
   "municipalityCode":250,
   "postcode":"3630",
   "city":"Jægerspris"
 },
 {
   "municipalityCode":250,
   "postcode":"3650",
   "city":"Ølstykke"
 },
 {
   "municipalityCode":250,
   "postcode":"4050",
   "city":"Skibby"
 },
 {
   "municipalityCode":253,
   "postcode":"2640",
   "city":"Hedehusene"
 },
 {
   "municipalityCode":253,
   "postcode":"2670",
   "city":"Greve"
 },
 {
   "municipalityCode":253,
   "postcode":"2690",
   "city":"Karlslunde"
 },
 {
   "municipalityCode":253,
   "postcode":"4030",
   "city":"Tune"
 },
 {
   "municipalityCode":259,
   "postcode":"4100",
   "city":"Ringsted"
 },
 {
   "municipalityCode":259,
   "postcode":"4130",
   "city":"Viby"
 },
 {
   "municipalityCode":259,
   "postcode":"4140",
   "city":"Borup"
 },
 {
   "municipalityCode":259,
   "postcode":"4174",
   "city":"Jystrup"
 },
 {
   "municipalityCode":259,
   "postcode":"4320",
   "city":"Lejre"
 },
 {
   "municipalityCode":259,
   "postcode":"4600",
   "city":"Køge"
 },
 {
   "municipalityCode":259,
   "postcode":"4623",
   "city":"Lille"
 },
 {
   "municipalityCode":259,
   "postcode":"4632",
   "city":"Bjæverskov"
 },
 {
   "municipalityCode":259,
   "postcode":"4681",
   "city":"Herfølge"
 },
 {
   "municipalityCode":259,
   "postcode":"4682",
   "city":"Tureby"
 },
 {
   "municipalityCode":260,
   "postcode":"3300",
   "city":"Frederiksværk"
 },
 {
   "municipalityCode":260,
   "postcode":"3310",
   "city":"Ølsted"
 },
 {
   "municipalityCode":260,
   "postcode":"3320",
   "city":"Skævinge"
 },
 {
   "municipalityCode":260,
   "postcode":"3360",
   "city":"Liseleje"
 },
 {
   "municipalityCode":260,
   "postcode":"3370",
   "city":"Melby"
 },
 {
   "municipalityCode":260,
   "postcode":"3390",
   "city":"Hundested"
 },
 {
   "municipalityCode":260,
   "postcode":"3600",
   "city":"Frederikssund"
 },
 {
   "municipalityCode":265,
   "postcode":"2640",
   "city":"Hedehusene"
 },
 {
   "municipalityCode":265,
   "postcode":"3670",
   "city":"Veksø"
 },
 {
   "municipalityCode":265,
   "postcode":"4000",
   "city":"Roskilde"
 },
 {
   "municipalityCode":265,
   "postcode":"4040",
   "city":"Jyllinge"
 },
 {
   "municipalityCode":265,
   "postcode":"4130",
   "city":"Viby"
 },
 {
   "municipalityCode":265,
   "postcode":"4621",
   "city":"Gadstrup"
 },
 {
   "municipalityCode":265,
   "postcode":"4622",
   "city":"Havdrup"
 },
 {
   "municipalityCode":265,
   "postcode":"4623",
   "city":"Lille"
 },
 {
   "municipalityCode":269,
   "postcode":"2680",
   "city":"Solrød"
 },
 {
   "municipalityCode":269,
   "postcode":"2690",
   "city":"Karlslunde"
 },
 {
   "municipalityCode":269,
   "postcode":"4622",
   "city":"Havdrup"
 },
 {
   "municipalityCode":269,
   "postcode":"4623",
   "city":"Lille"
 },
 {
   "municipalityCode":270,
   "postcode":"3100",
   "city":"Hornbæk"
 },
 {
   "municipalityCode":270,
   "postcode":"3120",
   "city":"Dronningmølle"
 },
 {
   "municipalityCode":270,
   "postcode":"3200",
   "city":"Helsinge"
 },
 {
   "municipalityCode":270,
   "postcode":"3210",
   "city":"Vejby"
 },
 {
   "municipalityCode":270,
   "postcode":"3220",
   "city":"Tisvildeleje"
 },
 {
   "municipalityCode":270,
   "postcode":"3230",
   "city":"Græsted"
 },
 {
   "municipalityCode":270,
   "postcode":"3250",
   "city":"Gilleleje"
 },
 {
   "municipalityCode":270,
   "postcode":"3300",
   "city":"Frederiksværk"
 },
 {
   "municipalityCode":306,
   "postcode":"4500",
   "city":"Nykøbing"
 },
 {
   "municipalityCode":306,
   "postcode":"4534",
   "city":"Hørve"
 },
 {
   "municipalityCode":306,
   "postcode":"4540",
   "city":"Fårevejle"
 },
 {
   "municipalityCode":306,
   "postcode":"4550",
   "city":"Asnæs"
 },
 {
   "municipalityCode":306,
   "postcode":"4560",
   "city":"Vig"
 },
 {
   "municipalityCode":306,
   "postcode":"4571",
   "city":"Grevinge"
 },
 {
   "municipalityCode":306,
   "postcode":"4572",
   "city":"Nørre"
 },
 {
   "municipalityCode":306,
   "postcode":"4573",
   "city":"Højby"
 },
 {
   "municipalityCode":306,
   "postcode":"4581",
   "city":"Rørvig"
 },
 {
   "municipalityCode":306,
   "postcode":"4583",
   "city":"Sjællands"
 },
 {
   "municipalityCode":306,
   "postcode":"4591",
   "city":"Føllenslev"
 },
 {
   "municipalityCode":316,
   "postcode":"4100",
   "city":"Ringsted"
 },
 {
   "municipalityCode":316,
   "postcode":"4295",
   "city":"Stenlille"
 },
 {
   "municipalityCode":316,
   "postcode":"4296",
   "city":"Nyrup"
 },
 {
   "municipalityCode":316,
   "postcode":"4300",
   "city":"Holbæk"
 },
 {
   "municipalityCode":316,
   "postcode":"4330",
   "city":"Hvalsø"
 },
 {
   "municipalityCode":316,
   "postcode":"4340",
   "city":"Tølløse"
 },
 {
   "municipalityCode":316,
   "postcode":"4350",
   "city":"Ugerløse"
 },
 {
   "municipalityCode":316,
   "postcode":"4360",
   "city":"Kirke Eskilstrup"
 },
 {
   "municipalityCode":316,
   "postcode":"4370",
   "city":"Store"
 },
 {
   "municipalityCode":316,
   "postcode":"4390",
   "city":"Vipperød"
 },
 {
   "municipalityCode":316,
   "postcode":"4420",
   "city":"Regstrup"
 },
 {
   "municipalityCode":316,
   "postcode":"4440",
   "city":"Mørkøv"
 },
 {
   "municipalityCode":316,
   "postcode":"4450",
   "city":"Jyderup"
 },
 {
   "municipalityCode":316,
   "postcode":"4460",
   "city":"Snertinge"
 },
 {
   "municipalityCode":316,
   "postcode":"4470",
   "city":"Svebølle"
 },
 {
   "municipalityCode":316,
   "postcode":"4520",
   "city":"Svinninge"
 },
 {
   "municipalityCode":316,
   "postcode":"4532",
   "city":"Gislinge"
 },
 {
   "municipalityCode":320,
   "postcode":"4100",
   "city":"Ringsted"
 },
 {
   "municipalityCode":320,
   "postcode":"4160",
   "city":"Herlufmagle"
 },
 {
   "municipalityCode":320,
   "postcode":"4640",
   "city":"Faxe"
 },
 {
   "municipalityCode":320,
   "postcode":"4652",
   "city":"Hårlev"
 },
 {
   "municipalityCode":320,
   "postcode":"4653",
   "city":"Karise"
 },
 {
   "municipalityCode":320,
   "postcode":"4654",
   "city":"Faxe"
 },
 {
   "municipalityCode":320,
   "postcode":"4682",
   "city":"Tureby"
 },
 {
   "municipalityCode":320,
   "postcode":"4683",
   "city":"Rønnede"
 },
 {
   "municipalityCode":320,
   "postcode":"4684",
   "city":"Holmegaard"
 },
 {
   "municipalityCode":320,
   "postcode":"4690",
   "city":"Haslev"
 },
 {
   "municipalityCode":320,
   "postcode":"4733",
   "city":"Tappernøje"
 },
 {
   "municipalityCode":326,
   "postcode":"4200",
   "city":"Slagelse"
 },
 {
   "municipalityCode":326,
   "postcode":"4270",
   "city":"Høng"
 },
 {
   "municipalityCode":326,
   "postcode":"4281",
   "city":"Gørlev"
 },
 {
   "municipalityCode":326,
   "postcode":"4291",
   "city":"Ruds"
 },
 {
   "municipalityCode":326,
   "postcode":"4293",
   "city":"Dianalund"
 },
 {
   "municipalityCode":326,
   "postcode":"4400",
   "city":"Kalundborg"
 },
 {
   "municipalityCode":326,
   "postcode":"4450",
   "city":"Jyderup"
 },
 {
   "municipalityCode":326,
   "postcode":"4460",
   "city":"Snertinge"
 },
 {
   "municipalityCode":326,
   "postcode":"4470",
   "city":"Svebølle"
 },
 {
   "municipalityCode":326,
   "postcode":"4480",
   "city":"Store"
 },
 {
   "municipalityCode":326,
   "postcode":"4490",
   "city":"Jerslev"
 },
 {
   "municipalityCode":326,
   "postcode":"4534",
   "city":"Hørve"
 },
 {
   "municipalityCode":326,
   "postcode":"4591",
   "city":"Føllenslev"
 },
 {
   "municipalityCode":326,
   "postcode":"4592",
   "city":"Sejerø"
 },
 {
   "municipalityCode":326,
   "postcode":"4593",
   "city":"Eskebjerg"
 },
 {
   "municipalityCode":329,
   "postcode":"4100",
   "city":"Ringsted"
 },
 {
   "municipalityCode":329,
   "postcode":"4140",
   "city":"Borup"
 },
 {
   "municipalityCode":329,
   "postcode":"4173",
   "city":"Fjenneslev"
 },
 {
   "municipalityCode":329,
   "postcode":"4174",
   "city":"Jystrup"
 },
 {
   "municipalityCode":329,
   "postcode":"4180",
   "city":"Sorø"
 },
 {
   "municipalityCode":329,
   "postcode":"4330",
   "city":"Hvalsø"
 },
 {
   "municipalityCode":329,
   "postcode":"4370",
   "city":"Store"
 },
 {
   "municipalityCode":329,
   "postcode":"4690",
   "city":"Haslev"
 },
 {
   "municipalityCode":330,
   "postcode":"4180",
   "city":"Sorø"
 },
 {
   "municipalityCode":330,
   "postcode":"4190",
   "city":"Munke"
 },
 {
   "municipalityCode":330,
   "postcode":"4200",
   "city":"Slagelse"
 },
 {
   "municipalityCode":330,
   "postcode":"4220",
   "city":"Korsør"
 },
 {
   "municipalityCode":330,
   "postcode":"4230",
   "city":"Skælskør"
 },
 {
   "municipalityCode":330,
   "postcode":"4241",
   "city":"Vemmelev"
 },
 {
   "municipalityCode":330,
   "postcode":"4242",
   "city":"Boeslunde"
 },
 {
   "municipalityCode":330,
   "postcode":"4250",
   "city":"Fuglebjerg"
 },
 {
   "municipalityCode":330,
   "postcode":"4261",
   "city":"Dalmose"
 },
 {
   "municipalityCode":330,
   "postcode":"4262",
   "city":"Sandved"
 },
 {
   "municipalityCode":336,
   "postcode":"4600",
   "city":"Køge"
 },
 {
   "municipalityCode":336,
   "postcode":"4652",
   "city":"Hårlev"
 },
 {
   "municipalityCode":336,
   "postcode":"4653",
   "city":"Karise"
 },
 {
   "municipalityCode":336,
   "postcode":"4660",
   "city":"Store"
 },
 {
   "municipalityCode":336,
   "postcode":"4671",
   "city":"Strøby"
 },
 {
   "municipalityCode":336,
   "postcode":"4672",
   "city":"Klippinge"
 },
 {
   "municipalityCode":336,
   "postcode":"4673",
   "city":"Rødvig"
 },
 {
   "municipalityCode":336,
   "postcode":"4682",
   "city":"Tureby"
 },
 {
   "municipalityCode":340,
   "postcode":"4100",
   "city":"Ringsted"
 },
 {
   "municipalityCode":340,
   "postcode":"4173",
   "city":"Fjenneslev"
 },
 {
   "municipalityCode":340,
   "postcode":"4180",
   "city":"Sorø"
 },
 {
   "municipalityCode":340,
   "postcode":"4190",
   "city":"Munke"
 },
 {
   "municipalityCode":340,
   "postcode":"4200",
   "city":"Slagelse"
 },
 {
   "municipalityCode":340,
   "postcode":"4291",
   "city":"Ruds"
 },
 {
   "municipalityCode":340,
   "postcode":"4293",
   "city":"Dianalund"
 },
 {
   "municipalityCode":340,
   "postcode":"4295",
   "city":"Stenlille"
 },
 {
   "municipalityCode":340,
   "postcode":"4296",
   "city":"Nyrup"
 },
 {
   "municipalityCode":340,
   "postcode":"4370",
   "city":"Store"
 },
 {
   "municipalityCode":350,
   "postcode":"4000",
   "city":"Roskilde"
 },
 {
   "municipalityCode":350,
   "postcode":"4050",
   "city":"Skibby"
 },
 {
   "municipalityCode":350,
   "postcode":"4060",
   "city":"Kirke Såby"
 },
 {
   "municipalityCode":350,
   "postcode":"4070",
   "city":"Kirke Hyllinge"
 },
 {
   "municipalityCode":350,
   "postcode":"4174",
   "city":"Jystrup"
 },
 {
   "municipalityCode":350,
   "postcode":"4320",
   "city":"Lejre"
 },
 {
   "municipalityCode":350,
   "postcode":"4330",
   "city":"Hvalsø"
 },
 {
   "municipalityCode":350,
   "postcode":"4340",
   "city":"Tølløse"
 },
 {
   "municipalityCode":360,
   "postcode":"4894",
   "city":"Øster"
 },
 {
   "municipalityCode":360,
   "postcode":"4895",
   "city":"Errindlev"
 },
 {
   "municipalityCode":360,
   "postcode":"4900",
   "city":"Nakskov"
 },
 {
   "municipalityCode":360,
   "postcode":"4912",
   "city":"Harpelunde"
 },
 {
   "municipalityCode":360,
   "postcode":"4913",
   "city":"Horslunde"
 },
 {
   "municipalityCode":360,
   "postcode":"4920",
   "city":"Søllested"
 },
 {
   "municipalityCode":360,
   "postcode":"4930",
   "city":"Maribo"
 },
 {
   "municipalityCode":360,
   "postcode":"4941",
   "city":"Bandholm"
 },
 {
   "municipalityCode":360,
   "postcode":"4943",
   "city":"Torrig"
 },
 {
   "municipalityCode":360,
   "postcode":"4944",
   "city":"Fejø"
 },
 {
   "municipalityCode":360,
   "postcode":"4951",
   "city":"Nørreballe"
 },
 {
   "municipalityCode":360,
   "postcode":"4952",
   "city":"Stokkemarke"
 },
 {
   "municipalityCode":360,
   "postcode":"4953",
   "city":"Vesterborg"
 },
 {
   "municipalityCode":360,
   "postcode":"4960",
   "city":"Holeby"
 },
 {
   "municipalityCode":360,
   "postcode":"4970",
   "city":"Rødby"
 },
 {
   "municipalityCode":360,
   "postcode":"4983",
   "city":"Dannemare"
 },
 {
   "municipalityCode":370,
   "postcode":"4100",
   "city":"Ringsted"
 },
 {
   "municipalityCode":370,
   "postcode":"4160",
   "city":"Herlufmagle"
 },
 {
   "municipalityCode":370,
   "postcode":"4171",
   "city":"Glumsø"
 },
 {
   "municipalityCode":370,
   "postcode":"4200",
   "city":"Slagelse"
 },
 {
   "municipalityCode":370,
   "postcode":"4243",
   "city":"Rude"
 },
 {
   "municipalityCode":370,
   "postcode":"4250",
   "city":"Fuglebjerg"
 },
 {
   "municipalityCode":370,
   "postcode":"4261",
   "city":"Dalmose"
 },
 {
   "municipalityCode":370,
   "postcode":"4262",
   "city":"Sandved"
 },
 {
   "municipalityCode":370,
   "postcode":"4640",
   "city":"Faxe"
 },
 {
   "municipalityCode":370,
   "postcode":"4683",
   "city":"Rønnede"
 },
 {
   "municipalityCode":370,
   "postcode":"4684",
   "city":"Holmegaard"
 },
 {
   "municipalityCode":370,
   "postcode":"4690",
   "city":"Haslev"
 },
 {
   "municipalityCode":370,
   "postcode":"4700",
   "city":"Næstved"
 },
 {
   "municipalityCode":370,
   "postcode":"4733",
   "city":"Tappernøje"
 },
 {
   "municipalityCode":370,
   "postcode":"4736",
   "city":"Karrebæksminde"
 },
 {
   "municipalityCode":370,
   "postcode":"4750",
   "city":"Lundby"
 },
 {
   "municipalityCode":376,
   "postcode":"4800",
   "city":"Nykøbing"
 },
 {
   "municipalityCode":376,
   "postcode":"4840",
   "city":"Nørre"
 },
 {
   "municipalityCode":376,
   "postcode":"4850",
   "city":"Stubbekøbing"
 },
 {
   "municipalityCode":376,
   "postcode":"4862",
   "city":"Guldborg"
 },
 {
   "municipalityCode":376,
   "postcode":"4863",
   "city":"Eskilstrup"
 },
 {
   "municipalityCode":376,
   "postcode":"4871",
   "city":"Horbelev"
 },
 {
   "municipalityCode":376,
   "postcode":"4872",
   "city":"Idestrup"
 },
 {
   "municipalityCode":376,
   "postcode":"4873",
   "city":"Væggerløse"
 },
 {
   "municipalityCode":376,
   "postcode":"4874",
   "city":"Gedser"
 },
 {
   "municipalityCode":376,
   "postcode":"4880",
   "city":"Nysted"
 },
 {
   "municipalityCode":376,
   "postcode":"4891",
   "city":"Toreby"
 },
 {
   "municipalityCode":376,
   "postcode":"4892",
   "city":"Kettinge"
 },
 {
   "municipalityCode":376,
   "postcode":"4894",
   "city":"Øster"
 },
 {
   "municipalityCode":376,
   "postcode":"4930",
   "city":"Maribo"
 },
 {
   "municipalityCode":376,
   "postcode":"4990",
   "city":"Sakskøbing"
 },
 {
   "municipalityCode":390,
   "postcode":"4720",
   "city":"Præstø"
 },
 {
   "municipalityCode":390,
   "postcode":"4733",
   "city":"Tappernøje"
 },
 {
   "municipalityCode":390,
   "postcode":"4735",
   "city":"Mern"
 },
 {
   "municipalityCode":390,
   "postcode":"4750",
   "city":"Lundby"
 },
 {
   "municipalityCode":390,
   "postcode":"4760",
   "city":"Vordingborg"
 },
 {
   "municipalityCode":390,
   "postcode":"4771",
   "city":"Kalvehave"
 },
 {
   "municipalityCode":390,
   "postcode":"4772",
   "city":"Langebæk"
 },
 {
   "municipalityCode":390,
   "postcode":"4773",
   "city":"Stensved"
 },
 {
   "municipalityCode":390,
   "postcode":"4780",
   "city":"Stege"
 },
 {
   "municipalityCode":390,
   "postcode":"4791",
   "city":"Borre"
 },
 {
   "municipalityCode":390,
   "postcode":"4792",
   "city":"Askeby"
 },
 {
   "municipalityCode":390,
   "postcode":"4793",
   "city":"Bogø"
 },
 {
   "municipalityCode":400,
   "postcode":"3700",
   "city":"Rønne"
 },
 {
   "municipalityCode":400,
   "postcode":"3720",
   "city":"Aakirkeby"
 },
 {
   "municipalityCode":400,
   "postcode":"3730",
   "city":"Nexø"
 },
 {
   "municipalityCode":400,
   "postcode":"3740",
   "city":"Svaneke"
 },
 {
   "municipalityCode":400,
   "postcode":"3751",
   "city":"Østermarie"
 },
 {
   "municipalityCode":400,
   "postcode":"3760",
   "city":"Gudhjem"
 },
 {
   "municipalityCode":400,
   "postcode":"3770",
   "city":"Allinge"
 },
 {
   "municipalityCode":400,
   "postcode":"3782",
   "city":"Klemensker"
 },
 {
   "municipalityCode":400,
   "postcode":"3790",
   "city":"Hasle"
 },
 {
   "municipalityCode":410,
   "postcode":"5463",
   "city":"Harndrup"
 },
 {
   "municipalityCode":410,
   "postcode":"5464",
   "city":"Brenderup"
 },
 {
   "municipalityCode":410,
   "postcode":"5466",
   "city":"Asperup"
 },
 {
   "municipalityCode":410,
   "postcode":"5500",
   "city":"Middelfart"
 },
 {
   "municipalityCode":410,
   "postcode":"5560",
   "city":"Aarup"
 },
 {
   "municipalityCode":410,
   "postcode":"5580",
   "city":"Nørre"
 },
 {
   "municipalityCode":410,
   "postcode":"5591",
   "city":"Gelsted"
 },
 {
   "municipalityCode":410,
   "postcode":"5592",
   "city":"Ejby"
 },
 {
   "municipalityCode":410,
   "postcode":"5610",
   "city":"Assens"
 },
 {
   "municipalityCode":411,
   "postcode":"3760",
   "city":"Gudhjem"
 },
 {
   "municipalityCode":420,
   "postcode":"5492",
   "city":"Vissenbjerg"
 },
 {
   "municipalityCode":420,
   "postcode":"5560",
   "city":"Aarup"
 },
 {
   "municipalityCode":420,
   "postcode":"5610",
   "city":"Assens"
 },
 {
   "municipalityCode":420,
   "postcode":"5620",
   "city":"Glamsbjerg"
 },
 {
   "municipalityCode":420,
   "postcode":"5631",
   "city":"Ebberup"
 },
 {
   "municipalityCode":420,
   "postcode":"5642",
   "city":"Millinge"
 },
 {
   "municipalityCode":420,
   "postcode":"5683",
   "city":"Haarby"
 },
 {
   "municipalityCode":420,
   "postcode":"5690",
   "city":"Tommerup"
 },
 {
   "municipalityCode":430,
   "postcode":"5550",
   "city":"Langeskov"
 },
 {
   "municipalityCode":430,
   "postcode":"5600",
   "city":"Faaborg"
 },
 {
   "municipalityCode":430,
   "postcode":"5642",
   "city":"Millinge"
 },
 {
   "municipalityCode":430,
   "postcode":"5672",
   "city":"Broby"
 },
 {
   "municipalityCode":430,
   "postcode":"5750",
   "city":"Ringe"
 },
 {
   "municipalityCode":430,
   "postcode":"5762",
   "city":"Vester"
 },
 {
   "municipalityCode":430,
   "postcode":"5771",
   "city":"Stenstrup"
 },
 {
   "municipalityCode":430,
   "postcode":"5772",
   "city":"Kværndrup"
 },
 {
   "municipalityCode":430,
   "postcode":"5792",
   "city":"Årslev"
 },
 {
   "municipalityCode":430,
   "postcode":"5853",
   "city":"Ørbæk"
 },
 {
   "municipalityCode":430,
   "postcode":"5854",
   "city":"Gislev"
 },
 {
   "municipalityCode":430,
   "postcode":"5856",
   "city":"Ryslinge"
 },
 {
   "municipalityCode":430,
   "postcode":"5863",
   "city":"Ferritslev"
 },
 {
   "municipalityCode":440,
   "postcode":"5290",
   "city":"Marslev"
 },
 {
   "municipalityCode":440,
   "postcode":"5300",
   "city":"Kerteminde"
 },
 {
   "municipalityCode":440,
   "postcode":"5330",
   "city":"Munkebo"
 },
 {
   "municipalityCode":440,
   "postcode":"5350",
   "city":"Rynkeby"
 },
 {
   "municipalityCode":440,
   "postcode":"5370",
   "city":"Mesinge"
 },
 {
   "municipalityCode":440,
   "postcode":"5380",
   "city":"Dalby"
 },
 {
   "municipalityCode":440,
   "postcode":"5390",
   "city":"Martofte"
 },
 {
   "municipalityCode":440,
   "postcode":"5540",
   "city":"Ullerslev"
 },
 {
   "municipalityCode":440,
   "postcode":"5550",
   "city":"Langeskov"
 },
 {
   "municipalityCode":450,
   "postcode":"5540",
   "city":"Ullerslev"
 },
 {
   "municipalityCode":450,
   "postcode":"5550",
   "city":"Langeskov"
 },
 {
   "municipalityCode":450,
   "postcode":"5800",
   "city":"Nyborg"
 },
 {
   "municipalityCode":450,
   "postcode":"5853",
   "city":"Ørbæk"
 },
 {
   "municipalityCode":450,
   "postcode":"5871",
   "city":"Frørup"
 },
 {
   "municipalityCode":450,
   "postcode":"5874",
   "city":"Hesselager"
 },
 {
   "municipalityCode":461,
   "postcode":"5000",
   "city":"Odense"
 },
 {
   "municipalityCode":461,
   "postcode":"5200",
   "city":"Odense"
 },
 {
   "municipalityCode":461,
   "postcode":"5210",
   "city":"Odense"
 },
 {
   "municipalityCode":461,
   "postcode":"5220",
   "city":"Odense"
 },
 {
   "municipalityCode":461,
   "postcode":"5230",
   "city":"Odense"
 },
 {
   "municipalityCode":461,
   "postcode":"5240",
   "city":"Odense"
 },
 {
   "municipalityCode":461,
   "postcode":"5250",
   "city":"Odense"
 },
 {
   "municipalityCode":461,
   "postcode":"5260",
   "city":"Odense"
 },
 {
   "municipalityCode":461,
   "postcode":"5270",
   "city":"Odense"
 },
 {
   "municipalityCode":461,
   "postcode":"5320",
   "city":"Agedrup"
 },
 {
   "municipalityCode":461,
   "postcode":"5330",
   "city":"Munkebo"
 },
 {
   "municipalityCode":461,
   "postcode":"5491",
   "city":"Blommenslyst"
 },
 {
   "municipalityCode":461,
   "postcode":"5492",
   "city":"Vissenbjerg"
 },
 {
   "municipalityCode":479,
   "postcode":"5700",
   "city":"Svendborg"
 },
 {
   "municipalityCode":479,
   "postcode":"5762",
   "city":"Vester"
 },
 {
   "municipalityCode":479,
   "postcode":"5771",
   "city":"Stenstrup"
 },
 {
   "municipalityCode":479,
   "postcode":"5772",
   "city":"Kværndrup"
 },
 {
   "municipalityCode":479,
   "postcode":"5854",
   "city":"Gislev"
 },
 {
   "municipalityCode":479,
   "postcode":"5874",
   "city":"Hesselager"
 },
 {
   "municipalityCode":479,
   "postcode":"5881",
   "city":"Skårup"
 },
 {
   "municipalityCode":479,
   "postcode":"5882",
   "city":"Vejstrup"
 },
 {
   "municipalityCode":479,
   "postcode":"5883",
   "city":"Oure"
 },
 {
   "municipalityCode":479,
   "postcode":"5884",
   "city":"Gudme"
 },
 {
   "municipalityCode":479,
   "postcode":"5892",
   "city":"Gudbjerg"
 },
 {
   "municipalityCode":480,
   "postcode":"5270",
   "city":"Odense"
 },
 {
   "municipalityCode":480,
   "postcode":"5400",
   "city":"Bogense"
 },
 {
   "municipalityCode":480,
   "postcode":"5450",
   "city":"Otterup"
 },
 {
   "municipalityCode":480,
   "postcode":"5462",
   "city":"Morud"
 },
 {
   "municipalityCode":480,
   "postcode":"5471",
   "city":"Søndersø"
 },
 {
   "municipalityCode":480,
   "postcode":"5474",
   "city":"Veflinge"
 },
 {
   "municipalityCode":480,
   "postcode":"5485",
   "city":"Skamby"
 },
 {
   "municipalityCode":480,
   "postcode":"5491",
   "city":"Blommenslyst"
 },
 {
   "municipalityCode":480,
   "postcode":"5492",
   "city":"Vissenbjerg"
 },
 {
   "municipalityCode":480,
   "postcode":"5560",
   "city":"Aarup"
 },
 {
   "municipalityCode":482,
   "postcode":"5900",
   "city":"Rudkøbing"
 },
 {
   "municipalityCode":482,
   "postcode":"5932",
   "city":"Humble"
 },
 {
   "municipalityCode":482,
   "postcode":"5935",
   "city":"Bagenkop"
 },
 {
   "municipalityCode":482,
   "postcode":"5953",
   "city":"Tranekær"
 },
 {
   "municipalityCode":492,
   "postcode":"5960",
   "city":"Marstal"
 },
 {
   "municipalityCode":492,
   "postcode":"5970",
   "city":"Ærøskøbing"
 },
 {
   "municipalityCode":492,
   "postcode":"5985",
   "city":"Søby"
 },
 {
   "municipalityCode":510,
   "postcode":"6070",
   "city":"Christiansfeld"
 },
 {
   "municipalityCode":510,
   "postcode":"6094",
   "city":"Hejls"
 },
 {
   "municipalityCode":510,
   "postcode":"6100",
   "city":"Haderslev"
 },
 {
   "municipalityCode":510,
   "postcode":"6500",
   "city":"Vojens"
 },
 {
   "municipalityCode":510,
   "postcode":"6510",
   "city":"Gram"
 },
 {
   "municipalityCode":510,
   "postcode":"6520",
   "city":"Toftlund"
 },
 {
   "municipalityCode":510,
   "postcode":"6534",
   "city":"Agerskov"
 },
 {
   "municipalityCode":510,
   "postcode":"6541",
   "city":"Bevtoft"
 },
 {
   "municipalityCode":510,
   "postcode":"6560",
   "city":"Sommersted"
 },
 {
   "municipalityCode":510,
   "postcode":"6630",
   "city":"Rødding"
 },
 {
   "municipalityCode":530,
   "postcode":"6623",
   "city":"Vorbasse"
 },
 {
   "municipalityCode":530,
   "postcode":"6682",
   "city":"Hovborg"
 },
 {
   "municipalityCode":530,
   "postcode":"6823",
   "city":"Ansager"
 },
 {
   "municipalityCode":530,
   "postcode":"7184",
   "city":"Vandel"
 },
 {
   "municipalityCode":530,
   "postcode":"7190",
   "city":"Billund"
 },
 {
   "municipalityCode":530,
   "postcode":"7200",
   "city":"Grindsted"
 },
 {
   "municipalityCode":530,
   "postcode":"7250",
   "city":"Hejnsvig"
 },
 {
   "municipalityCode":530,
   "postcode":"7260",
   "city":"Sønder"
 },
 {
   "municipalityCode":530,
   "postcode":"7270",
   "city":"Stakroge"
 },
 {
   "municipalityCode":540,
   "postcode":"6300",
   "city":"Gråsten"
 },
 {
   "municipalityCode":540,
   "postcode":"6310",
   "city":"Broager"
 },
 {
   "municipalityCode":540,
   "postcode":"6320",
   "city":"Egernsund"
 },
 {
   "municipalityCode":540,
   "postcode":"6400",
   "city":"Sønderborg"
 },
 {
   "municipalityCode":540,
   "postcode":"6430",
   "city":"Nordborg"
 },
 {
   "municipalityCode":540,
   "postcode":"6440",
   "city":"Augustenborg"
 },
 {
   "municipalityCode":540,
   "postcode":"6470",
   "city":"Sydals"
 },
 {
   "municipalityCode":550,
   "postcode":"6240",
   "city":"Løgumkloster"
 },
 {
   "municipalityCode":550,
   "postcode":"6261",
   "city":"Bredebro"
 },
 {
   "municipalityCode":550,
   "postcode":"6270",
   "city":"Tønder"
 },
 {
   "municipalityCode":550,
   "postcode":"6280",
   "city":"Højer"
 },
 {
   "municipalityCode":550,
   "postcode":"6372",
   "city":"Bylderup-Bov"
 },
 {
   "municipalityCode":550,
   "postcode":"6520",
   "city":"Toftlund"
 },
 {
   "municipalityCode":550,
   "postcode":"6534",
   "city":"Agerskov"
 },
 {
   "municipalityCode":550,
   "postcode":"6535",
   "city":"Branderup"
 },
 {
   "municipalityCode":550,
   "postcode":"6541",
   "city":"Bevtoft"
 },
 {
   "municipalityCode":550,
   "postcode":"6780",
   "city":"Skærbæk"
 },
 {
   "municipalityCode":550,
   "postcode":"6792",
   "city":"Rømø"
 },
 {
   "municipalityCode":561,
   "postcode":"6670",
   "city":"Holsted"
 },
 {
   "municipalityCode":561,
   "postcode":"6683",
   "city":"Føvling"
 },
 {
   "municipalityCode":561,
   "postcode":"6690",
   "city":"Gørding"
 },
 {
   "municipalityCode":561,
   "postcode":"6700",
   "city":"Esbjerg"
 },
 {
   "municipalityCode":561,
   "postcode":"6705",
   "city":"Esbjerg"
 },
 {
   "municipalityCode":561,
   "postcode":"6710",
   "city":"Esbjerg"
 },
 {
   "municipalityCode":561,
   "postcode":"6715",
   "city":"Esbjerg"
 },
 {
   "municipalityCode":561,
   "postcode":"6731",
   "city":"Tjæreborg"
 },
 {
   "municipalityCode":561,
   "postcode":"6740",
   "city":"Bramming"
 },
 {
   "municipalityCode":561,
   "postcode":"6760",
   "city":"Ribe"
 },
 {
   "municipalityCode":561,
   "postcode":"6771",
   "city":"Gredstedbro"
 },
 {
   "municipalityCode":561,
   "postcode":"6818",
   "city":"Årre"
 },
 {
   "municipalityCode":563,
   "postcode":"6720",
   "city":"Fanø"
 },
 {
   "municipalityCode":573,
   "postcode":"6682",
   "city":"Hovborg"
 },
 {
   "municipalityCode":573,
   "postcode":"6753",
   "city":"Agerbæk"
 },
 {
   "municipalityCode":573,
   "postcode":"6800",
   "city":"Varde"
 },
 {
   "municipalityCode":573,
   "postcode":"6818",
   "city":"Årre"
 },
 {
   "municipalityCode":573,
   "postcode":"6823",
   "city":"Ansager"
 },
 {
   "municipalityCode":573,
   "postcode":"6830",
   "city":"Nørre"
 },
 {
   "municipalityCode":573,
   "postcode":"6840",
   "city":"Oksbøl"
 },
 {
   "municipalityCode":573,
   "postcode":"6851",
   "city":"Janderup"
 },
 {
   "municipalityCode":573,
   "postcode":"6852",
   "city":"Billum"
 },
 {
   "municipalityCode":573,
   "postcode":"6853",
   "city":"Vejers"
 },
 {
   "municipalityCode":573,
   "postcode":"6854",
   "city":"Henne"
 },
 {
   "municipalityCode":573,
   "postcode":"6855",
   "city":"Outrup"
 },
 {
   "municipalityCode":573,
   "postcode":"6857",
   "city":"Blåvand"
 },
 {
   "municipalityCode":573,
   "postcode":"6862",
   "city":"Tistrup"
 },
 {
   "municipalityCode":573,
   "postcode":"6870",
   "city":"Ølgod"
 },
 {
   "municipalityCode":573,
   "postcode":"6880",
   "city":"Tarm"
 },
 {
   "municipalityCode":573,
   "postcode":"7200",
   "city":"Grindsted"
 },
 {
   "municipalityCode":575,
   "postcode":"6560",
   "city":"Sommersted"
 },
 {
   "municipalityCode":575,
   "postcode":"6600",
   "city":"Vejen"
 },
 {
   "municipalityCode":575,
   "postcode":"6621",
   "city":"Gesten"
 },
 {
   "municipalityCode":575,
   "postcode":"6622",
   "city":"Bække"
 },
 {
   "municipalityCode":575,
   "postcode":"6623",
   "city":"Vorbasse"
 },
 {
   "municipalityCode":575,
   "postcode":"6630",
   "city":"Rødding"
 },
 {
   "municipalityCode":575,
   "postcode":"6650",
   "city":"Brørup"
 },
 {
   "municipalityCode":575,
   "postcode":"6660",
   "city":"Lintrup"
 },
 {
   "municipalityCode":575,
   "postcode":"6670",
   "city":"Holsted"
 },
 {
   "municipalityCode":575,
   "postcode":"6682",
   "city":"Hovborg"
 },
 {
   "municipalityCode":575,
   "postcode":"6683",
   "city":"Føvling"
 },
 {
   "municipalityCode":575,
   "postcode":"6690",
   "city":"Gørding"
 },
 {
   "municipalityCode":575,
   "postcode":"6752",
   "city":"Glejbjerg"
 },
 {
   "municipalityCode":575,
   "postcode":"6753",
   "city":"Agerbæk"
 },
 {
   "municipalityCode":580,
   "postcode":"6200",
   "city":"Aabenraa"
 },
 {
   "municipalityCode":580,
   "postcode":"6230",
   "city":"Rødekro"
 },
 {
   "municipalityCode":580,
   "postcode":"6330",
   "city":"Padborg"
 },
 {
   "municipalityCode":580,
   "postcode":"6340",
   "city":"Kruså"
 },
 {
   "municipalityCode":580,
   "postcode":"6360",
   "city":"Tinglev"
 },
 {
   "municipalityCode":580,
   "postcode":"6372",
   "city":"Bylderup-Bov"
 },
 {
   "municipalityCode":580,
   "postcode":"6392",
   "city":"Bolderslev"
 },
 {
   "municipalityCode":580,
   "postcode":"6534",
   "city":"Agerskov"
 },
 {
   "municipalityCode":607,
   "postcode":"7000",
   "city":"Fredericia"
 },
 {
   "municipalityCode":615,
   "postcode":"8300",
   "city":"Odder"
 },
 {
   "municipalityCode":615,
   "postcode":"8654",
   "city":"Bryrup"
 },
 {
   "municipalityCode":615,
   "postcode":"8660",
   "city":"Skanderborg"
 },
 {
   "municipalityCode":615,
   "postcode":"8680",
   "city":"Ry"
 },
 {
   "municipalityCode":615,
   "postcode":"8700",
   "city":"Horsens"
 },
 {
   "municipalityCode":615,
   "postcode":"8732",
   "city":"Hovedgård"
 },
 {
   "municipalityCode":615,
   "postcode":"8740",
   "city":"Brædstrup"
 },
 {
   "municipalityCode":615,
   "postcode":"8751",
   "city":"Gedved"
 },
 {
   "municipalityCode":615,
   "postcode":"8752",
   "city":"Østbirk"
 },
 {
   "municipalityCode":615,
   "postcode":"8762",
   "city":"Flemming"
 },
 {
   "municipalityCode":615,
   "postcode":"8765",
   "city":"Klovborg"
 },
 {
   "municipalityCode":615,
   "postcode":"8781",
   "city":"Stenderupp"
 },
 {
   "municipalityCode":615,
   "postcode":"8783",
   "city":"Hornsyld"
 },
 {
   "municipalityCode":621,
   "postcode":"6000",
   "city":"Kolding"
 },
 {
   "municipalityCode":621,
   "postcode":"6040",
   "city":"Egtved"
 },
 {
   "municipalityCode":621,
   "postcode":"6051",
   "city":"Almind"
 },
 {
   "municipalityCode":621,
   "postcode":"6052",
   "city":"Viuf"
 },
 {
   "municipalityCode":621,
   "postcode":"6064",
   "city":"Jordrup"
 },
 {
   "municipalityCode":621,
   "postcode":"6070",
   "city":"Christiansfeld"
 },
 {
   "municipalityCode":621,
   "postcode":"6070",
   "city":"Crhistiansfeld"
 },
 {
   "municipalityCode":621,
   "postcode":"6091",
   "city":"Bjert"
 },
 {
   "municipalityCode":621,
   "postcode":"6092",
   "city":"Sønder"
 },
 {
   "municipalityCode":621,
   "postcode":"6093",
   "city":"Sjølund"
 },
 {
   "municipalityCode":621,
   "postcode":"6094",
   "city":"Hejls"
 },
 {
   "municipalityCode":621,
   "postcode":"6100",
   "city":"Haderslev"
 },
 {
   "municipalityCode":621,
   "postcode":"6560",
   "city":"Sommersted"
 },
 {
   "municipalityCode":621,
   "postcode":"6580",
   "city":"Vamdrup"
 },
 {
   "municipalityCode":621,
   "postcode":"6640",
   "city":"Lunderskov"
 },
 {
   "municipalityCode":630,
   "postcode":"6040",
   "city":"Egtved"
 },
 {
   "municipalityCode":630,
   "postcode":"6052",
   "city":"Viuf"
 },
 {
   "municipalityCode":630,
   "postcode":"6623",
   "city":"Vorbasse"
 },
 {
   "municipalityCode":630,
   "postcode":"7000",
   "city":"Fredericia"
 },
 {
   "municipalityCode":630,
   "postcode":"7080",
   "city":"Børkop"
 },
 {
   "municipalityCode":630,
   "postcode":"7100",
   "city":"Vejle"
 },
 {
   "municipalityCode":630,
   "postcode":"7120",
   "city":"Vejle"
 },
 {
   "municipalityCode":630,
   "postcode":"7160",
   "city":"Tørring"
 },
 {
   "municipalityCode":630,
   "postcode":"7173",
   "city":"Vonge"
 },
 {
   "municipalityCode":630,
   "postcode":"7182",
   "city":"Bredsten"
 },
 {
   "municipalityCode":630,
   "postcode":"7183",
   "city":"Randbøl"
 },
 {
   "municipalityCode":630,
   "postcode":"7184",
   "city":"Vandel"
 },
 {
   "municipalityCode":630,
   "postcode":"7190",
   "city":"Billund"
 },
 {
   "municipalityCode":630,
   "postcode":"7200",
   "city":"Grindsted"
 },
 {
   "municipalityCode":630,
   "postcode":"7300",
   "city":"Jelling"
 },
 {
   "municipalityCode":630,
   "postcode":"7321",
   "city":"Gadbjerg"
 },
 {
   "municipalityCode":630,
   "postcode":"7323",
   "city":"Give"
 },
 {
   "municipalityCode":630,
   "postcode":"7330",
   "city":"Brande"
 },
 {
   "municipalityCode":630,
   "postcode":"7361",
   "city":"Ejstrupholm"
 },
 {
   "municipalityCode":630,
   "postcode":"8721",
   "city":"Daugård"
 },
 {
   "municipalityCode":657,
   "postcode":"6933",
   "city":"Kibæk"
 },
 {
   "municipalityCode":657,
   "postcode":"6973",
   "city":"Ørnhøj"
 },
 {
   "municipalityCode":657,
   "postcode":"6990",
   "city":"Ulfborg"
 },
 {
   "municipalityCode":657,
   "postcode":"7260",
   "city":"Sønder"
 },
 {
   "municipalityCode":657,
   "postcode":"7270",
   "city":"Stakroge"
 },
 {
   "municipalityCode":657,
   "postcode":"7280",
   "city":"Sønder"
 },
 {
   "municipalityCode":657,
   "postcode":"7330",
   "city":"Brande"
 },
 {
   "municipalityCode":657,
   "postcode":"7400",
   "city":"Herning"
 },
 {
   "municipalityCode":657,
   "postcode":"7451",
   "city":"Sunds"
 },
 {
   "municipalityCode":657,
   "postcode":"7470",
   "city":"Karup"
 },
 {
   "municipalityCode":657,
   "postcode":"7480",
   "city":"Vildbjerg"
 },
 {
   "municipalityCode":657,
   "postcode":"7490",
   "city":"Aulum"
 },
 {
   "municipalityCode":657,
   "postcode":"7500",
   "city":"Holstebro"
 },
 {
   "municipalityCode":657,
   "postcode":"7540",
   "city":"Haderup"
 },
 {
   "municipalityCode":657,
   "postcode":"7550",
   "city":"Sørvad"
 },
 {
   "municipalityCode":657,
   "postcode":"7830",
   "city":"Vinderup"
 },
 {
   "municipalityCode":661,
   "postcode":"6990",
   "city":"Ulfborg"
 },
 {
   "municipalityCode":661,
   "postcode":"7500",
   "city":"Holstebro"
 },
 {
   "municipalityCode":661,
   "postcode":"7540",
   "city":"Haderup"
 },
 {
   "municipalityCode":661,
   "postcode":"7560",
   "city":"Hjerm"
 },
 {
   "municipalityCode":661,
   "postcode":"7570",
   "city":"Vemb"
 },
 {
   "municipalityCode":661,
   "postcode":"7600",
   "city":"Struer"
 },
 {
   "municipalityCode":661,
   "postcode":"7800",
   "city":"Skive"
 },
 {
   "municipalityCode":661,
   "postcode":"7830",
   "city":"Vinderup"
 },
 {
   "municipalityCode":665,
   "postcode":"6990",
   "city":"Ulfborg"
 },
 {
   "municipalityCode":665,
   "postcode":"7570",
   "city":"Vemb"
 },
 {
   "municipalityCode":665,
   "postcode":"7600",
   "city":"Struer"
 },
 {
   "municipalityCode":665,
   "postcode":"7620",
   "city":"Lemvig"
 },
 {
   "municipalityCode":665,
   "postcode":"7650",
   "city":"Bøvlingbjerg"
 },
 {
   "municipalityCode":665,
   "postcode":"7660",
   "city":"Bækmarksbro"
 },
 {
   "municipalityCode":665,
   "postcode":"7673",
   "city":"Harboøre"
 },
 {
   "municipalityCode":665,
   "postcode":"7680",
   "city":"Thyborøn"
 },
 {
   "municipalityCode":671,
   "postcode":"7500",
   "city":"Holstebro"
 },
 {
   "municipalityCode":671,
   "postcode":"7560",
   "city":"Hjerm"
 },
 {
   "municipalityCode":671,
   "postcode":"7600",
   "city":"Struer"
 },
 {
   "municipalityCode":671,
   "postcode":"7660",
   "city":"Bækmarksbro"
 },
 {
   "municipalityCode":671,
   "postcode":"7760",
   "city":"Hurup"
 },
 {
   "municipalityCode":671,
   "postcode":"7790",
   "city":"Thyholm"
 },
 {
   "municipalityCode":671,
   "postcode":"7830",
   "city":"Vinderup"
 },
 {
   "municipalityCode":706,
   "postcode":"8370",
   "city":"Hadsten"
 },
 {
   "municipalityCode":706,
   "postcode":"8400",
   "city":"Ebeltoft"
 },
 {
   "municipalityCode":706,
   "postcode":"8410",
   "city":"Rønde"
 },
 {
   "municipalityCode":706,
   "postcode":"8420",
   "city":"Knebel"
 },
 {
   "municipalityCode":706,
   "postcode":"8444",
   "city":"Balle"
 },
 {
   "municipalityCode":706,
   "postcode":"8543",
   "city":"Hornslet"
 },
 {
   "municipalityCode":706,
   "postcode":"8544",
   "city":"Mørke"
 },
 {
   "municipalityCode":706,
   "postcode":"8550",
   "city":"Ryomgård"
 },
 {
   "municipalityCode":706,
   "postcode":"8560",
   "city":"Kolind"
 },
 {
   "municipalityCode":706,
   "postcode":"8570",
   "city":"Trustrup"
 },
 {
   "municipalityCode":706,
   "postcode":"8581",
   "city":"Nimtofte"
 },
 {
   "municipalityCode":706,
   "postcode":"8963",
   "city":"Auning"
 },
 {
   "municipalityCode":707,
   "postcode":"8444",
   "city":"Balle"
 },
 {
   "municipalityCode":707,
   "postcode":"8500",
   "city":"Grenaa"
 },
 {
   "municipalityCode":707,
   "postcode":"8550",
   "city":"Ryomgård"
 },
 {
   "municipalityCode":707,
   "postcode":"8560",
   "city":"Kolind"
 },
 {
   "municipalityCode":707,
   "postcode":"8570",
   "city":"Trustrup"
 },
 {
   "municipalityCode":707,
   "postcode":"8581",
   "city":"Nimtofte"
 },
 {
   "municipalityCode":707,
   "postcode":"8585",
   "city":"Glesborg"
 },
 {
   "municipalityCode":707,
   "postcode":"8586",
   "city":"Ørum"
 },
 {
   "municipalityCode":707,
   "postcode":"8592",
   "city":"Anholt"
 },
 {
   "municipalityCode":707,
   "postcode":"8950",
   "city":"Ørsted"
 },
 {
   "municipalityCode":707,
   "postcode":"8961",
   "city":"Allingåbro"
 },
 {
   "municipalityCode":707,
   "postcode":"8963",
   "city":"Auning"
 },
 {
   "municipalityCode":710,
   "postcode":"8370",
   "city":"Hadsten"
 },
 {
   "municipalityCode":710,
   "postcode":"8380",
   "city":"Trige"
 },
 {
   "municipalityCode":710,
   "postcode":"8382",
   "city":"Hinnerup"
 },
 {
   "municipalityCode":710,
   "postcode":"8450",
   "city":"Hammel"
 },
 {
   "municipalityCode":710,
   "postcode":"8471",
   "city":"Sabro"
 },
 {
   "municipalityCode":710,
   "postcode":"8472",
   "city":"Sporup"
 },
 {
   "municipalityCode":710,
   "postcode":"8641",
   "city":"Sorring"
 },
 {
   "municipalityCode":710,
   "postcode":"8850",
   "city":"Bjerringbro"
 },
 {
   "municipalityCode":710,
   "postcode":"8860",
   "city":"Ulstrup"
 },
 {
   "municipalityCode":710,
   "postcode":"8870",
   "city":"Langå"
 },
 {
   "municipalityCode":710,
   "postcode":"8881",
   "city":"Thorsø"
 },
 {
   "municipalityCode":710,
   "postcode":"8882",
   "city":"Fårvang"
 },
 {
   "municipalityCode":710,
   "postcode":"8940",
   "city":"Randers"
 },
 {
   "municipalityCode":710,
   "postcode":"8960",
   "city":"Randers"
 },
 {
   "municipalityCode":727,
   "postcode":"8300",
   "city":"Odder"
 },
 {
   "municipalityCode":727,
   "postcode":"8340",
   "city":"Malling"
 },
 {
   "municipalityCode":727,
   "postcode":"8350",
   "city":"Hundslund"
 },
 {
   "municipalityCode":727,
   "postcode":"8660",
   "city":"Skanderborg"
 },
 {
   "municipalityCode":730,
   "postcode":"8860",
   "city":"Ulstrup"
 },
 {
   "municipalityCode":730,
   "postcode":"8870",
   "city":"Langå"
 },
 {
   "municipalityCode":730,
   "postcode":"8900",
   "city":"Randers"
 },
 {
   "municipalityCode":730,
   "postcode":"8920",
   "city":"Randers"
 },
 {
   "municipalityCode":730,
   "postcode":"8930",
   "city":"Randers"
 },
 {
   "municipalityCode":730,
   "postcode":"8940",
   "city":"Randers"
 },
 {
   "municipalityCode":730,
   "postcode":"8960",
   "city":"Randers"
 },
 {
   "municipalityCode":730,
   "postcode":"8970",
   "city":"Havndal"
 },
 {
   "municipalityCode":730,
   "postcode":"8981",
   "city":"Spentrup"
 },
 {
   "municipalityCode":730,
   "postcode":"8983",
   "city":"Gjerlev"
 },
 {
   "municipalityCode":730,
   "postcode":"8990",
   "city":"Fårup"
 },
 {
   "municipalityCode":730,
   "postcode":"9550",
   "city":"Mariager"
 },
 {
   "municipalityCode":740,
   "postcode":"7362",
   "city":"Hampen"
 },
 {
   "municipalityCode":740,
   "postcode":"7441",
   "city":"Bording"
 },
 {
   "municipalityCode":740,
   "postcode":"7442",
   "city":"Engesvang"
 },
 {
   "municipalityCode":740,
   "postcode":"7470",
   "city":"Karup"
 },
 {
   "municipalityCode":740,
   "postcode":"8450",
   "city":"Hammel"
 },
 {
   "municipalityCode":740,
   "postcode":"8472",
   "city":"Sporup"
 },
 {
   "municipalityCode":740,
   "postcode":"8600",
   "city":"Silkeborg"
 },
 {
   "municipalityCode":740,
   "postcode":"8620",
   "city":"Kjellerup"
 },
 {
   "municipalityCode":740,
   "postcode":"8632",
   "city":"Lemming"
 },
 {
   "municipalityCode":740,
   "postcode":"8641",
   "city":"Sorring"
 },
 {
   "municipalityCode":740,
   "postcode":"8643",
   "city":"Ans"
 },
 {
   "municipalityCode":740,
   "postcode":"8653",
   "city":"Them"
 },
 {
   "municipalityCode":740,
   "postcode":"8654",
   "city":"Bryrup"
 },
 {
   "municipalityCode":740,
   "postcode":"8670",
   "city":"Låsby"
 },
 {
   "municipalityCode":740,
   "postcode":"8680",
   "city":"Ry"
 },
 {
   "municipalityCode":740,
   "postcode":"8740",
   "city":"Brædstrup"
 },
 {
   "municipalityCode":740,
   "postcode":"8800",
   "city":"Viborg"
 },
 {
   "municipalityCode":740,
   "postcode":"8840",
   "city":"Rødkærsbro"
 },
 {
   "municipalityCode":740,
   "postcode":"8881",
   "city":"Thorsø"
 },
 {
   "municipalityCode":740,
   "postcode":"8882",
   "city":"Fårvang"
 },
 {
   "municipalityCode":740,
   "postcode":"8883",
   "city":"Gjern"
 },
 {
   "municipalityCode":741,
   "postcode":"8305",
   "city":"Samsø"
 },
 {
   "municipalityCode":746,
   "postcode":"8362",
   "city":"Hørning"
 },
 {
   "municipalityCode":746,
   "postcode":"8464",
   "city":"Galten"
 },
 {
   "municipalityCode":746,
   "postcode":"8471",
   "city":"Sabro"
 },
 {
   "municipalityCode":746,
   "postcode":"8472",
   "city":"Sporup"
 },
 {
   "municipalityCode":746,
   "postcode":"8600",
   "city":"Silkeborg"
 },
 {
   "municipalityCode":746,
   "postcode":"8660",
   "city":"Skanderborg"
 },
 {
   "municipalityCode":746,
   "postcode":"8670",
   "city":"Låsby"
 },
 {
   "municipalityCode":746,
   "postcode":"8680",
   "city":"Ry"
 },
 {
   "municipalityCode":746,
   "postcode":"8751",
   "city":"Gedved"
 },
 {
   "municipalityCode":751,
   "postcode":"8000",
   "city":"Aarhus"
 },
 {
   "municipalityCode":751,
   "postcode":"8200",
   "city":"Aarhus"
 },
 {
   "municipalityCode":751,
   "postcode":"8210",
   "city":"Aarhus"
 },
 {
   "municipalityCode":751,
   "postcode":"8220",
   "city":"Brabrand"
 },
 {
   "municipalityCode":751,
   "postcode":"8230",
   "city":"Åbyhøj"
 },
 {
   "municipalityCode":751,
   "postcode":"8240",
   "city":"Risskov"
 },
 {
   "municipalityCode":751,
   "postcode":"8250",
   "city":"Egå"
 },
 {
   "municipalityCode":751,
   "postcode":"8260",
   "city":"Viby"
 },
 {
   "municipalityCode":751,
   "postcode":"8270",
   "city":"Højbjerg"
 },
 {
   "municipalityCode":751,
   "postcode":"8310",
   "city":"Tranbjerg"
 },
 {
   "municipalityCode":751,
   "postcode":"8320",
   "city":"Mårslet"
 },
 {
   "municipalityCode":751,
   "postcode":"8340",
   "city":"Malling"
 },
 {
   "municipalityCode":751,
   "postcode":"8355",
   "city":"Solbjerg"
 },
 {
   "municipalityCode":751,
   "postcode":"8361",
   "city":"Hasselager"
 },
 {
   "municipalityCode":751,
   "postcode":"8362",
   "city":"Hørning"
 },
 {
   "municipalityCode":751,
   "postcode":"8380",
   "city":"Trige"
 },
 {
   "municipalityCode":751,
   "postcode":"8382",
   "city":"Hinnerup"
 },
 {
   "municipalityCode":751,
   "postcode":"8462",
   "city":"Harlev"
 },
 {
   "municipalityCode":751,
   "postcode":"8464",
   "city":"Galten"
 },
 {
   "municipalityCode":751,
   "postcode":"8520",
   "city":"Lystrup"
 },
 {
   "municipalityCode":751,
   "postcode":"8530",
   "city":"Hjortshøj"
 },
 {
   "municipalityCode":751,
   "postcode":"8541",
   "city":"Skødstrup"
 },
 {
   "municipalityCode":751,
   "postcode":"8543",
   "city":"Hornslet"
 },
 {
   "municipalityCode":751,
   "postcode":"8660",
   "city":"Skanderborg"
 },
 {
   "municipalityCode":756,
   "postcode":"7160",
   "city":"Tørring"
 },
 {
   "municipalityCode":756,
   "postcode":"7260",
   "city":"Sønder"
 },
 {
   "municipalityCode":756,
   "postcode":"7323",
   "city":"Give"
 },
 {
   "municipalityCode":756,
   "postcode":"7330",
   "city":"Brande"
 },
 {
   "municipalityCode":756,
   "postcode":"7361",
   "city":"Ejstrupholm"
 },
 {
   "municipalityCode":756,
   "postcode":"7362",
   "city":"Hampen"
 },
 {
   "municipalityCode":756,
   "postcode":"7400",
   "city":"Herning"
 },
 {
   "municipalityCode":756,
   "postcode":"7430",
   "city":"Ikast"
 },
 {
   "municipalityCode":756,
   "postcode":"7441",
   "city":"Bording"
 },
 {
   "municipalityCode":756,
   "postcode":"7442",
   "city":"Engesvang"
 },
 {
   "municipalityCode":756,
   "postcode":"7451",
   "city":"Sunds"
 },
 {
   "municipalityCode":756,
   "postcode":"8600",
   "city":"Silkeborg"
 },
 {
   "municipalityCode":756,
   "postcode":"8654",
   "city":"Bryrup"
 },
 {
   "municipalityCode":756,
   "postcode":"8765",
   "city":"Klovborg"
 },
 {
   "municipalityCode":756,
   "postcode":"8766",
   "city":"Nørre"
 },
 {
   "municipalityCode":760,
   "postcode":"6830",
   "city":"Nørre"
 },
 {
   "municipalityCode":760,
   "postcode":"6870",
   "city":"Ølgod"
 },
 {
   "municipalityCode":760,
   "postcode":"6880",
   "city":"Tarm"
 },
 {
   "municipalityCode":760,
   "postcode":"6893",
   "city":"Hemmet"
 },
 {
   "municipalityCode":760,
   "postcode":"6900",
   "city":"Skjern"
 },
 {
   "municipalityCode":760,
   "postcode":"6920",
   "city":"Videbæk"
 },
 {
   "municipalityCode":760,
   "postcode":"6933",
   "city":"Kibæk"
 },
 {
   "municipalityCode":760,
   "postcode":"6940",
   "city":"Lem"
 },
 {
   "municipalityCode":760,
   "postcode":"6950",
   "city":"Ringkøbing"
 },
 {
   "municipalityCode":760,
   "postcode":"6960",
   "city":"Hvide"
 },
 {
   "municipalityCode":760,
   "postcode":"6971",
   "city":"Spjald"
 },
 {
   "municipalityCode":760,
   "postcode":"6973",
   "city":"Ørnhøj"
 },
 {
   "municipalityCode":760,
   "postcode":"6980",
   "city":"Tim"
 },
 {
   "municipalityCode":760,
   "postcode":"6990",
   "city":"Ulfborg"
 },
 {
   "municipalityCode":760,
   "postcode":"7200",
   "city":"Grindsted"
 },
 {
   "municipalityCode":760,
   "postcode":"7270",
   "city":"Stakroge"
 },
 {
   "municipalityCode":760,
   "postcode":"7280",
   "city":"Sønder"
 },
 {
   "municipalityCode":760,
   "postcode":"7400",
   "city":"Herning"
 },
 {
   "municipalityCode":760,
   "postcode":"7480",
   "city":"Vildbjerg"
 },
 {
   "municipalityCode":766,
   "postcode":"7100",
   "city":"Vejle"
 },
 {
   "municipalityCode":766,
   "postcode":"7120",
   "city":"Vejle"
 },
 {
   "municipalityCode":766,
   "postcode":"7130",
   "city":"Juelsminde"
 },
 {
   "municipalityCode":766,
   "postcode":"7140",
   "city":"Stouby"
 },
 {
   "municipalityCode":766,
   "postcode":"7150",
   "city":"Barrit"
 },
 {
   "municipalityCode":766,
   "postcode":"7160",
   "city":"Tørring"
 },
 {
   "municipalityCode":766,
   "postcode":"7171",
   "city":"Uldum"
 },
 {
   "municipalityCode":766,
   "postcode":"7173",
   "city":"Vonge"
 },
 {
   "municipalityCode":766,
   "postcode":"8700",
   "city":"Horsens"
 },
 {
   "municipalityCode":766,
   "postcode":"8721",
   "city":"Daugård"
 },
 {
   "municipalityCode":766,
   "postcode":"8722",
   "city":"Hedensted"
 },
 {
   "municipalityCode":766,
   "postcode":"8723",
   "city":"Løsning"
 },
 {
   "municipalityCode":766,
   "postcode":"8762",
   "city":"Flemming"
 },
 {
   "municipalityCode":766,
   "postcode":"8763",
   "city":"Rask"
 },
 {
   "municipalityCode":766,
   "postcode":"8766",
   "city":"Nørre"
 },
 {
   "municipalityCode":766,
   "postcode":"8781",
   "city":"Stenderupp"
 },
 {
   "municipalityCode":766,
   "postcode":"8783",
   "city":"Hornsyld"
 },
 {
   "municipalityCode":773,
   "postcode":"7900",
   "city":"Nykøbing"
 },
 {
   "municipalityCode":773,
   "postcode":"7950",
   "city":"Erslev"
 },
 {
   "municipalityCode":773,
   "postcode":"7960",
   "city":"Karby"
 },
 {
   "municipalityCode":773,
   "postcode":"7970",
   "city":"Redsted"
 },
 {
   "municipalityCode":773,
   "postcode":"7980",
   "city":"Vils"
 },
 {
   "municipalityCode":773,
   "postcode":"7990",
   "city":"Øster"
 },
 {
   "municipalityCode":779,
   "postcode":"7800",
   "city":"Skive"
 },
 {
   "municipalityCode":779,
   "postcode":"7830",
   "city":"Vinderup"
 },
 {
   "municipalityCode":779,
   "postcode":"7840",
   "city":"Højslev"
 },
 {
   "municipalityCode":779,
   "postcode":"7860",
   "city":"Spøttrup"
 },
 {
   "municipalityCode":779,
   "postcode":"7870",
   "city":"Roslev"
 },
 {
   "municipalityCode":779,
   "postcode":"7884",
   "city":"Fur"
 },
 {
   "municipalityCode":787,
   "postcode":"7700",
   "city":"Thisted"
 },
 {
   "municipalityCode":787,
   "postcode":"7730",
   "city":"Hanstholm"
 },
 {
   "municipalityCode":787,
   "postcode":"7741",
   "city":"Frøstrup"
 },
 {
   "municipalityCode":787,
   "postcode":"7742",
   "city":"Vesløs"
 },
 {
   "municipalityCode":787,
   "postcode":"7752",
   "city":"Snedsted"
 },
 {
   "municipalityCode":787,
   "postcode":"7755",
   "city":"Bedsted"
 },
 {
   "municipalityCode":787,
   "postcode":"7760",
   "city":"Hurup"
 },
 {
   "municipalityCode":787,
   "postcode":"7770",
   "city":"Vestervig"
 },
 {
   "municipalityCode":791,
   "postcode":"7451",
   "city":"Sunds"
 },
 {
   "municipalityCode":791,
   "postcode":"7470",
   "city":"Karup"
 },
 {
   "municipalityCode":791,
   "postcode":"7540",
   "city":"Haderup"
 },
 {
   "municipalityCode":791,
   "postcode":"7800",
   "city":"Skive"
 },
 {
   "municipalityCode":791,
   "postcode":"7840",
   "city":"Højslev"
 },
 {
   "municipalityCode":791,
   "postcode":"7850",
   "city":"Stoholm"
 },
 {
   "municipalityCode":791,
   "postcode":"8620",
   "city":"Kjellerup"
 },
 {
   "municipalityCode":791,
   "postcode":"8643",
   "city":"Ans"
 },
 {
   "municipalityCode":791,
   "postcode":"8800",
   "city":"Viborg"
 },
 {
   "municipalityCode":791,
   "postcode":"8830",
   "city":"Tjele"
 },
 {
   "municipalityCode":791,
   "postcode":"8831",
   "city":"Løgstrup"
 },
 {
   "municipalityCode":791,
   "postcode":"8832",
   "city":"Skals"
 },
 {
   "municipalityCode":791,
   "postcode":"8840",
   "city":"Rødkærsbro"
 },
 {
   "municipalityCode":791,
   "postcode":"8850",
   "city":"Bjerringbro"
 },
 {
   "municipalityCode":791,
   "postcode":"8860",
   "city":"Ulstrup"
 },
 {
   "municipalityCode":791,
   "postcode":"8900",
   "city":"Randers"
 },
 {
   "municipalityCode":791,
   "postcode":"9500",
   "city":"Hobro"
 },
 {
   "municipalityCode":791,
   "postcode":"9620",
   "city":"Aalestrup"
 },
 {
   "municipalityCode":791,
   "postcode":"9631",
   "city":"Gedsted"
 },
 {
   "municipalityCode":791,
   "postcode":"9632",
   "city":"Møldrup"
 },
 {
   "municipalityCode":810,
   "postcode":"9320",
   "city":"Hjallerup"
 },
 {
   "municipalityCode":810,
   "postcode":"9330",
   "city":"Dronninglund"
 },
 {
   "municipalityCode":810,
   "postcode":"9340",
   "city":"Asaa"
 },
 {
   "municipalityCode":810,
   "postcode":"9352",
   "city":"Dybvad"
 },
 {
   "municipalityCode":810,
   "postcode":"9370",
   "city":"Hals"
 },
 {
   "municipalityCode":810,
   "postcode":"9380",
   "city":"Vestbjerg"
 },
 {
   "municipalityCode":810,
   "postcode":"9381",
   "city":"Sulsted"
 },
 {
   "municipalityCode":810,
   "postcode":"9382",
   "city":"Tylstrup"
 },
 {
   "municipalityCode":810,
   "postcode":"9440",
   "city":"Aabybro"
 },
 {
   "municipalityCode":810,
   "postcode":"9480",
   "city":"Løkken"
 },
 {
   "municipalityCode":810,
   "postcode":"9700",
   "city":"Brønderslev"
 },
 {
   "municipalityCode":810,
   "postcode":"9740",
   "city":"Jerslev"
 },
 {
   "municipalityCode":810,
   "postcode":"9750",
   "city":"Østervrå"
 },
 {
   "municipalityCode":810,
   "postcode":"9760",
   "city":"Vrå"
 },
 {
   "municipalityCode":813,
   "postcode":"9300",
   "city":"Sæby"
 },
 {
   "municipalityCode":813,
   "postcode":"9330",
   "city":"Dronninglund"
 },
 {
   "municipalityCode":813,
   "postcode":"9340",
   "city":"Asaa"
 },
 {
   "municipalityCode":813,
   "postcode":"9352",
   "city":"Dybvad"
 },
 {
   "municipalityCode":813,
   "postcode":"9750",
   "city":"Østervrå"
 },
 {
   "municipalityCode":813,
   "postcode":"9830",
   "city":"Tårs"
 },
 {
   "municipalityCode":813,
   "postcode":"9870",
   "city":"Sindal"
 },
 {
   "municipalityCode":813,
   "postcode":"9881",
   "city":"Bindslev"
 },
 {
   "municipalityCode":813,
   "postcode":"9900",
   "city":"Frederikshavn"
 },
 {
   "municipalityCode":813,
   "postcode":"9970",
   "city":"Strandby"
 },
 {
   "municipalityCode":813,
   "postcode":"9981",
   "city":"Jerup"
 },
 {
   "municipalityCode":813,
   "postcode":"9982",
   "city":"Ålbæk"
 },
 {
   "municipalityCode":813,
   "postcode":"9990",
   "city":"Skagen"
 },
 {
   "municipalityCode":820,
   "postcode":"9240",
   "city":"Nibe"
 },
 {
   "municipalityCode":820,
   "postcode":"9541",
   "city":"Suldrup"
 },
 {
   "municipalityCode":820,
   "postcode":"9600",
   "city":"Aars"
 },
 {
   "municipalityCode":820,
   "postcode":"9610",
   "city":"Nørager"
 },
 {
   "municipalityCode":820,
   "postcode":"9620",
   "city":"Aalestrup"
 },
 {
   "municipalityCode":820,
   "postcode":"9631",
   "city":"Gedsted"
 },
 {
   "municipalityCode":820,
   "postcode":"9640",
   "city":"Farsø"
 },
 {
   "municipalityCode":820,
   "postcode":"9670",
   "city":"Løgstør"
 },
 {
   "municipalityCode":820,
   "postcode":"9681",
   "city":"Ranum"
 },
 {
   "municipalityCode":825,
   "postcode":"9940",
   "city":"Læsø"
 },
 {
   "municipalityCode":840,
   "postcode":"9230",
   "city":"Svenstrup"
 },
 {
   "municipalityCode":840,
   "postcode":"9240",
   "city":"Nibe"
 },
 {
   "municipalityCode":840,
   "postcode":"9260",
   "city":"Gistrup"
 },
 {
   "municipalityCode":840,
   "postcode":"9293",
   "city":"Kongerslev"
 },
 {
   "municipalityCode":840,
   "postcode":"9500",
   "city":"Hobro"
 },
 {
   "municipalityCode":840,
   "postcode":"9510",
   "city":"Arden"
 },
 {
   "municipalityCode":840,
   "postcode":"9520",
   "city":"Skørping"
 },
 {
   "municipalityCode":840,
   "postcode":"9530",
   "city":"Støvring"
 },
 {
   "municipalityCode":840,
   "postcode":"9541",
   "city":"Suldrup"
 },
 {
   "municipalityCode":840,
   "postcode":"9560",
   "city":"Hadsund"
 },
 {
   "municipalityCode":840,
   "postcode":"9574",
   "city":"Bælum"
 },
 {
   "municipalityCode":840,
   "postcode":"9575",
   "city":"Terndrup"
 },
 {
   "municipalityCode":840,
   "postcode":"9600",
   "city":"Aars"
 },
 {
   "municipalityCode":840,
   "postcode":"9610",
   "city":"Nørager"
 },
 {
   "municipalityCode":840,
   "postcode":"9620",
   "city":"Aalestrup"
 },
 {
   "municipalityCode":846,
   "postcode":"8970",
   "city":"Havndal"
 },
 {
   "municipalityCode":846,
   "postcode":"8990",
   "city":"Fårup"
 },
 {
   "municipalityCode":846,
   "postcode":"9500",
   "city":"Hobro"
 },
 {
   "municipalityCode":846,
   "postcode":"9510",
   "city":"Arden"
 },
 {
   "municipalityCode":846,
   "postcode":"9550",
   "city":"Mariager"
 },
 {
   "municipalityCode":846,
   "postcode":"9560",
   "city":"Hadsund"
 },
 {
   "municipalityCode":846,
   "postcode":"9620",
   "city":"Aalestrup"
 },
 {
   "municipalityCode":846,
   "postcode":"9632",
   "city":"Møldrup"
 },
 {
   "municipalityCode":849,
   "postcode":"9380",
   "city":"Vestbjerg"
 },
 {
   "municipalityCode":849,
   "postcode":"9381",
   "city":"Sulsted"
 },
 {
   "municipalityCode":849,
   "postcode":"9382",
   "city":"Tylstrup"
 },
 {
   "municipalityCode":849,
   "postcode":"9430",
   "city":"Vadum"
 },
 {
   "municipalityCode":849,
   "postcode":"9440",
   "city":"Aabybro"
 },
 {
   "municipalityCode":849,
   "postcode":"9460",
   "city":"Brovst"
 },
 {
   "municipalityCode":849,
   "postcode":"9480",
   "city":"Løkken"
 },
 {
   "municipalityCode":849,
   "postcode":"9490",
   "city":"Pandrup"
 },
 {
   "municipalityCode":849,
   "postcode":"9492",
   "city":"Blokhus"
 },
 {
   "municipalityCode":849,
   "postcode":"9493",
   "city":"Saltum"
 },
 {
   "municipalityCode":849,
   "postcode":"9670",
   "city":"Løgstør"
 },
 {
   "municipalityCode":849,
   "postcode":"9690",
   "city":"Fjerritslev"
 },
 {
   "municipalityCode":849,
   "postcode":"9700",
   "city":"Brønderslev"
 },
 {
   "municipalityCode":851,
   "postcode":"9000",
   "city":"Aalborg"
 },
 {
   "municipalityCode":851,
   "postcode":"9200",
   "city":"Aalborg"
 },
 {
   "municipalityCode":851,
   "postcode":"9210",
   "city":"Aalborg"
 },
 {
   "municipalityCode":851,
   "postcode":"9220",
   "city":"Aalborg"
 },
 {
   "municipalityCode":851,
   "postcode":"9230",
   "city":"Svenstrup"
 },
 {
   "municipalityCode":851,
   "postcode":"9240",
   "city":"Nibe"
 },
 {
   "municipalityCode":851,
   "postcode":"9260",
   "city":"Gistrup"
 },
 {
   "municipalityCode":851,
   "postcode":"9270",
   "city":"Klarup"
 },
 {
   "municipalityCode":851,
   "postcode":"9280",
   "city":"Storvorde"
 },
 {
   "municipalityCode":851,
   "postcode":"9293",
   "city":"Kongerslev"
 },
 {
   "municipalityCode":851,
   "postcode":"9310",
   "city":"Vodskov"
 },
 {
   "municipalityCode":851,
   "postcode":"9320",
   "city":"Hjallerup"
 },
 {
   "municipalityCode":851,
   "postcode":"9362",
   "city":"Gandrup"
 },
 {
   "municipalityCode":851,
   "postcode":"9370",
   "city":"Hals"
 },
 {
   "municipalityCode":851,
   "postcode":"9380",
   "city":"Vestbjerg"
 },
 {
   "municipalityCode":851,
   "postcode":"9381",
   "city":"Sulsted"
 },
 {
   "municipalityCode":851,
   "postcode":"9382",
   "city":"Tylstrup"
 },
 {
   "municipalityCode":851,
   "postcode":"9400",
   "city":"Nørresundby"
 },
 {
   "municipalityCode":851,
   "postcode":"9430",
   "city":"Vadum"
 },
 {
   "municipalityCode":851,
   "postcode":"9440",
   "city":"Aabybro"
 },
 {
   "municipalityCode":851,
   "postcode":"9530",
   "city":"Støvring"
 },
 {
   "municipalityCode":860,
   "postcode":"9480",
   "city":"Løkken"
 },
 {
   "municipalityCode":860,
   "postcode":"9740",
   "city":"Jerslev"
 },
 {
   "municipalityCode":860,
   "postcode":"9750",
   "city":"Østervrå"
 },
 {
   "municipalityCode":860,
   "postcode":"9760",
   "city":"Vrå"
 },
 {
   "municipalityCode":860,
   "postcode":"9800",
   "city":"Hjørring"
 },
 {
   "municipalityCode":860,
   "postcode":"9830",
   "city":"Tårs"
 },
 {
   "municipalityCode":860,
   "postcode":"9850",
   "city":"Hirtshals"
 },
 {
   "municipalityCode":860,
   "postcode":"9870",
   "city":"Sindal"
 },
 {
   "municipalityCode":860,
   "postcode":"9881",
   "city":"Bindslev"
 },
 {
   "municipalityCode":860,
   "postcode":"9900",
   "city":"Frederikshavn"
 },
 {
   "municipalityCode":860,
   "postcode":"9982",
   "city":"Ålbæk"
 },
 {
   "municipalityCode":955,
   "postcode":"3919",
   "city":"Alluitsup"
 },
 {
   "municipalityCode":955,
   "postcode":"3920",
   "city":"Qaqortoq"
 },
 {
   "municipalityCode":955,
   "postcode":"3921",
   "city":"Narsaq"
 },
 {
   "municipalityCode":955,
   "postcode":"3922",
   "city":"Nanortalik"
 },
 {
   "municipalityCode":955,
   "postcode":"3923",
   "city":"Narsarsuaq"
 },
 {
   "municipalityCode":955,
   "postcode":"3924",
   "city":"Ikerasassuaq"
 },
 {
   "municipalityCode":955,
   "postcode":"3927",
   "city":"Angissoq"
 },
 {
   "municipalityCode":956,
   "postcode":"3900",
   "city":"Nuuk"
 },
 {
   "municipalityCode":956,
   "postcode":"3905",
   "city":"Nuussuaq"
 },
 {
   "municipalityCode":956,
   "postcode":"3913",
   "city":"Tasiilaq"
 },
 {
   "municipalityCode":956,
   "postcode":"3915",
   "city":"Kulusuk"
 },
 {
   "municipalityCode":956,
   "postcode":"3930",
   "city":"Kangilinnguit"
 },
 {
   "municipalityCode":956,
   "postcode":"3932",
   "city":"Arsuk"
 },
 {
   "municipalityCode":956,
   "postcode":"3940",
   "city":"Paamiut"
 },
 {
   "municipalityCode":956,
   "postcode":"3980",
   "city":"Ittoqqortoormiit"
 },
 {
   "municipalityCode":956,
   "postcode":"3985",
   "city":"Constable"
 },
 {
   "municipalityCode":957,
   "postcode":"3910",
   "city":"Kangerlussuaq"
 },
 {
   "municipalityCode":957,
   "postcode":"3911",
   "city":"Sisimiut"
 },
 {
   "municipalityCode":957,
   "postcode":"3912",
   "city":"Maniitsoq"
 },
 {
   "municipalityCode":958,
   "postcode":"3950",
   "city":"Aasiaat"
 },
 {
   "municipalityCode":958,
   "postcode":"3951",
   "city":"Qasigiannguit"
 },
 {
   "municipalityCode":958,
   "postcode":"3952",
   "city":"Ilulissat"
 },
 {
   "municipalityCode":958,
   "postcode":"3953",
   "city":"Qeqertarssuaq"
 },
 {
   "municipalityCode":958,
   "postcode":"3954",
   "city":"Nipisat"
 },
 {
   "municipalityCode":958,
   "postcode":"3955",
   "city":"Kangaatsiaq"
 },
 {
   "municipalityCode":958,
   "postcode":"3961",
   "city":"Uummannaq"
 },
 {
   "municipalityCode":958,
   "postcode":"3962",
   "city":"Upernavik"
 },
 {
   "municipalityCode":958,
   "postcode":"3963",
   "city":"Marmorilik"
 },
 {
   "municipalityCode":958,
   "postcode":"3964",
   "city":"Qaarsut"
 },
 {
   "municipalityCode":958,
   "postcode":"3970",
   "city":"Pituffik"
 },
 {
   "municipalityCode":958,
   "postcode":"3971",
   "city":"Qaanaaq"
 },
 {
   "municipalityCode":961,
   "postcode":"3900",
   "city":"Nuuk"
 },
 {
   "municipalityCode":961,
   "postcode":"3926",
   "city":"Qutdleq"
 },
 {
   "municipalityCode":961,
   "postcode":"3970",
   "city":"Pituffik"
 },
 {
   "municipalityCode":961,
   "postcode":"3972",
   "city":"Nord"
 },
 {
   "municipalityCode":961,
   "postcode":"3982",
   "city":"Mesters"
 },
 {
   "municipalityCode":961,
   "postcode":"3983",
   "city":"Daneborg"
 },
 {
   "municipalityCode":961,
   "postcode":"3984",
   "city":"Danmarkshavn"
 },
 {
   "municipalityCode":961,
   "postcode":"3992",
   "city":"Slædep.Sirius"
 }
]